X,Y,VOLCANX020,NUMBER,NAME,LOCATION,STATUS,ELEV,TYPE,TIMEFRAME,LAT,LONG
120.34999847412109,15.130000114440918,1,0703-083,Pinatubo,Luzon-Philippines,Historical,1486,Stratovolcano,D1,15.130,120.350
120.55000305175781,16.330001831054688,2,0703-086,Santo Tomas,Luzon-Philippines,Uncertain,2260,Stratovolcano,?,16.330,120.550
121.18000030517578,21.830001831054688,3,0801-02=,Unnamed,Taiwan-E of,Historical,-115,Submarine volcano,D3,21.830,121.180
120.40000152587891,14.704998970031738,4,0703-082,Natib,Luzon-Philippines,Holocene?,1287,Stratovolcano,?,14.705,120.400
120.5,14.500000953674316,5,0703-081,Mariveles,Luzon-Philippines,Radiocarbon,1420,Stratovolcano,D7,14.500,120.500
121.51999664306641,25.169998168945312,6,0801-032,Tatun Group,Taiwan,Pleistocene-Fumarolic,1120,Stratovolcanoes,Q,25.170,121.520
120.98000335693359,17.147001266479492,7,0703-087,Patoc,Luzon-Philippines,Fumarolic,1865,Stratovolcano,U,17.147,120.980
120.80500030517578,15.828001022338867,8,0703-085,Amorong,Luzon-Philippines,Fumarolic,376,Unknown,U,15.828,120.805
120.74199676513672,15.199999809265137,9,0703-084,Arayat,Luzon-Philippines,Holocene?,1026,Stratovolcano,?,15.200,120.742
121.09999847412109,17.319997787475586,10,0703-088,Ambalatungan Group,Luzon-Philippines,Fumarolic,2329,Compound volcano,U,17.320,121.100
121.83000183105469,23.999998092651367,11,0801-03=,Unnamed,Taiwan-E of,Historical,0,Submarine volcano,D3,24.000,121.830
121.91999816894531,24.850000381469727,12,0801-031,Kueishantao,Taiwan,Pleistocene-Fumarolic,401,Stratovolcano,Q,24.850,121.920
121.75,20.329999923706055,13,0704-05=,Unnamed,Luzon-N of,Historical,-24,Submarine volcano,D3,20.330,121.750
122.06999969482422,25.629999160766602,14,0801-041,Pengchiahsu,Taiwan-N of,Pleistocene-Fumarolic,129,Stratovolcano,Q,25.630,122.070
120.89299774169922,13.722997665405273,15,0703-045,Panay,Luzon-Philippines,Pleistocene-Fumarolic,501,Stratovolcano,Q,13.723,120.893
120.99299621582031,14.001999855041504,16,0703-07=,Taal,Luzon-Philippines,Historical,400,Stratovolcano,D1,14.002,120.993
122.01000213623047,20.468997955322266,17,0704-06-,Iraya,Luzon-N of,Historical,1009,Stratovolcano,D6,20.469,122.010
122.33000183105469,25.420001983642578,18,0801-04=,Unnamed,Taiwan-N of,Historical,-100,Submarine volcano,D3,25.420,122.330
121.94000244140625,19.523002624511719,19,0704-03=,Babuyan Claro,Luzon-N of,Historical,1080,Stratovolcanoes,D2,19.523,121.940
121.86000061035156,18.830001831054688,20,0704-01=,Camiguin de Babuyanes,Luzon-N of,Historical,712,Stratovolcano,D3,18.830,121.860
121.19999694824219,14.130000114440918,21,0703-06=,Maquiling,Luzon-Philippines,Holocene,1090,Stratovolcano,U,14.130,121.200
122.45800018310547,26.179998397827148,22,0801-05=,Zengyu,Taiwan-N of,Historical,-418,Submarine volcano,D2,26.180,122.458
121.33000183105469,14.34999942779541,23,0703-08=,Jalajala,Luzon-Philippines,Fumarolic,743,Fumarole field,?,14.350,121.330
121.30000305175781,14.119997978210449,24,0703-051,Laguna Volc Field,Luzon-Philippines,Anthropology,654,Scoria cones,D6,14.120,121.300
122.20200347900391,19.076999664306641,25,0704-02=,Didicas,Luzon-N of,Historical,244,Compound volcano,D1,19.077,122.202
122.12300109863281,18.222003936767578,26,0703-09=,Cagua,Luzon-Philippines,Historical,1133,Stratovolcano,D3,18.222,122.123
121.48000335693359,14.070002555847168,27,0703-05=,Banahao,Luzon-Philippines,Holocene,2158,Complex volcano,U,14.070,121.480
122.01799774169922,13.24000072479248,28,0703-044,Malindig,Luzon-Philippines,Hot Springs,1157,Stratovolcano ?,U,13.240,122.018
124.0,24.557998657226562,29,0802-01=,Iriomote-jima,Ryukyu Is,Historical,-200,Submarine volcano,D2,24.558,124.000
122.79199981689453,14.019999504089355,30,0703-043,Labo,Luzon-Philippines,Pleistocene-Hot Springs,1544,Compound volcano,U,14.020,122.792
123.37999725341797,13.657998085021973,31,0703-042,Isarog,Luzon-Philippines,Fumarolic,1966,Stratovolcano,U,13.658,123.380
123.45700073242187,13.456998825073242,32,0703-041,Iriga,Luzon-Philippines,Historical,1196,Stratovolcano,D5,13.457,123.457
123.59700012207031,13.421998977661133,33,0703-04=,Malinao,Luzon-Philippines,Fumarolic,1548,Stratovolcano,U,13.422,123.597
123.59999847412109,13.31999683380127,34,0703-031,Masaraga,Luzon-Philippines,Holocene,1328,Stratovolcano,U,13.320,123.600
123.68499755859375,13.256999969482422,35,0703-03=,Mayon,Luzon-Philippines,Historical,2462,Stratovolcano,D1,13.257,123.685
123.13200378417969,10.411995887756348,36,0702-02=,Canlaon,Philippines-C,Historical,2435,Stratovolcano,D1,10.412,123.132
123.23000335693359,10.769998550415039,37,0702-04=,Silay,Philippines-C,Holocene,1535,Stratovolcano,U,10.770,123.230
123.22000122070312,10.614998817443848,38,0702-03=,Mandalagan,Philippines-C,Holocene,1879,Stratovolcano,U,10.615,123.220
123.95800018310547,13.049999237060547,39,0703-02=,Pocdol Mountains,Luzon-Philippines,Holocene,1102,Compound volcano,U,13.050,123.958
126.52999877929687,33.369998931884766,40,1006-04-,Halla,Korea,Historical,1950,Shield volcano,D6,33.370,126.530
124.05000305175781,12.770001411437988,41,0703-01=,Bulusan,Luzon-Philippines,Historical,1565,Stratovolcano,D1,12.770,124.050
126.5,42.330001831054688,42,1005-05-,Longgang Group,China-E,Radiocarbon,1000,Cinder cones,D4,42.330,126.500
127.33000183105469,38.330001831054687,43,1006-02-,Ch'uga-ryong,Korea,Holocene?,452,Shield volcano,?,38.330,127.330
124.53500366210937,11.523001670837402,44,0702-08=,Biliran,Philippines-C,Historical,1301,Compound volcano,D2,11.523,124.535
124.85299682617187,10.872003555297852,45,0702-07=,Mahagnoa,Philippines-C,Fumarolic,800,Stratovolcano,U,10.872,124.853
128.2239990234375,27.87700080871582,46,0802-02=,Iwo-Tori-shima,Ryukyu Is,Historical,212,Complex volcano,D1,27.877,128.224
128.0,41.330001831054688,47,1006-01-,Xianjindao,Korea,Historical,0,Unknown,D5,41.330,128.000
128.08000183105469,41.979999542236328,48,1005-06-,Baitoushan,China-E,Historical,2744,Stratovolcano,D4,41.980,128.080
126.12000274658203,48.720001220703125,49,1005-03-,Wudalianchi,China-E,Historical,597,Volcanic field,D4,48.720,126.120
128.85099792480469,32.652999877929687,50,0802-091,Fukue-jima,Kyushu-Japan,Tephrochronology,317,Shield volcanoes,D7,32.653,128.851
125.91999816894531,49.369998931884766,51,1005-02-,Keluo Group,China-E,Holocene,670,Pyroclastic cones,U,49.370,125.920
125.22100067138672,10.286998748779297,52,0702-05=,Cabal¡an,Philippines-C,Fumarolic,945,Stratovolcano,U,10.287,125.221
128.83000183105469,44.080001831054688,53,1005-04-,Jingpohu,China-E,Radiocarbon,500,Volcanic field,D7,44.080,128.830
129.59700012207031,29.46099853515625,54,0802-021,Akuseki-jima,Ryukyu Is,Holocene?,584,Stratovolcanoes,?,29.461,129.597
129.71600341796875,29.635000228881836,55,0802-03=,Suwanose-jima,Ryukyu Is,Historical,799,Stratovolcanoes,D1,29.635,129.716
129.85899353027344,29.856000900268555,56,0802-04=,Nakano-shima,Ryukyu Is,Historical,979,Stratovolcanoes,D2,29.856,129.859
129.927001953125,29.964004516601563,57,0802-041,Kuchino-shima,Ryukyu Is,Holocene,628,Stratovolcanoes,D7,29.964,129.927
130.29400634765625,32.756996154785156,58,0802-10=,Unzen,Kyushu-Japan,Historical,1500,Complex volcano,D1,32.757,130.294
130.218994140625,30.439998626708984,59,0802-05=,Kuchinoerabu-jima,Ryukyu Is,Historical,657,Stratovolcanoes,D1,30.440,130.219
130.30799865722656,30.78900146484375,60,0802-06=,Kikai,Ryukyu Is,Historical,704,Caldera,D1,30.789,130.308
130.593994140625,31.767999649047852,61,0802-081,Sumiyoshi-ike,Kyushu-Japan,Radiocarbon,100,Maars,D7,31.768,130.594
130.57000732421875,31.220001220703125,62,0802-07=,Ibusuki Volc Field,Kyushu-Japan,Historical,922,Calderas,D6,31.220,130.570
130.65699768066406,31.585000991821289,63,0802-08=,Sakura-jima,Kyushu-Japan,Historical,1117,Stratovolcano,D1,31.585,130.657
130.8699951171875,37.5,64,1006-03-,Ulreung,Korea,Radiocarbon,984,Stratovolcano,D7,37.500,130.870
130.86399841308594,31.931001663208008,65,0802-09=,Kirishima,Kyushu-Japan,Historical,1700,Shield volcano,D1,31.931,130.864
131.10600280761719,32.881000518798828,66,0802-11=,Aso,Kyushu-Japan,Historical,1592,Caldera,D1,32.881,131.106
131.25100708007812,33.083000183105469,67,0802-12=,Kuju,Kyushu-Japan,Historical,1791,Stratovolcanoes,D1,33.083,131.251
131.4320068359375,33.279998779296875,68,0802-13=,Tsurumi,Kyushu-Japan,Historical,1584,Lava domes,D6,33.280,131.432
131.60000610351562,34.5,69,0803-001,Abu,Honshu-Japan,Holocene?,641,Shield volcanoes,?,34.500,131.600
132.6199951171875,35.130001068115234,70,0803-002,Sanbe,Honshu-Japan,Radiocarbon,1126,Stratovolcano,D7,35.130,132.620
133.33000183105469,36.169998168945313,71,0803-003,Oki-Dogo,Honshu-Japan,Anthropology,151,Shield volcano,U,36.170,133.330
132.25,19.170001983642578,72,0801-011,Unnamed,Taiwan-E of,Uncertain,-10,Submarine volcano ?,?,19.170,132.250
136.77400207519531,36.152000427246094,73,0803-05=,Haku-san,Honshu-Japan,Historical,2702,Stratovolcano,D5,36.152,136.774
137.5,47.0,74,1002-01-,Sikhote-Alin,Russia-SE,Holocene,0,Volcanic field,U,47.000,137.500
137.5,36.399997711181641,75,0803-071,Washiba-Kumonotaira,Honshu-Japan,Tephrochronology,2924,Shield volcanoes,D7,36.400,137.500
137.47999572753906,35.889999389648438,76,0803-04=,On-take,Honshu-Japan,Historical,3063,Complex volcano,D1,35.890,137.480
137.59300231933594,36.568000793457031,77,0803-08=,Tate-yama,Honshu-Japan,Historical,2621,Stratovolcano,D3,36.568,137.593
137.5570068359375,36.103000640869141,78,0803-06=,Norikura,Honshu-Japan,Radiocarbon,3026,Stratovolcanoes,D7,36.103,137.557
137.58999633789062,36.224002838134766,79,0803-07=,Yake-dake,Honshu-Japan,Historical,2455,Stratovolcano,D1,36.224,137.590
138.03900146484375,36.917995452880859,80,0803-09=,Niigata-Yake-yama,Honshu-Japan,Historical,2400,Lava dome,D1,36.918,138.039
138.1199951171875,36.88800048828125,81,0803-10=,Myoko,Honshu-Japan,Radiocarbon,2446,Stratovolcano,D7,36.888,138.120
134.75,20.930000305175781,82,0801-01=,Unnamed,Taiwan-E of,Uncertain,-6000,Submarine volcano ?,?,20.930,134.750
138.30000305175781,36.099998474121094,83,0803-031,Tateshina,Honshu-Japan,Holocene,2530,Stratovolcanoes,U,36.100,138.300
138.52000427246094,36.700000762939453,84,0803-121,Shiga,Honshu-Japan,Holocene?,2041,Shield volcanoes,?,36.700,138.520
138.53500366210937,36.6199951171875,85,0803-12=,Kusatsu-Shirane,Honshu-Japan,Historical,2171,Stratovolcanoes,D1,36.620,138.535
138.5260009765625,36.402999877929687,86,0803-11=,Asama,Honshu-Japan,Historical,2568,Complex volcano,D1,36.403,138.526
139.37100219726562,41.506999969482422,87,0805-01=,Oshima-Oshima,Hokkaido-Japan,Historical,737,Stratovolcano,D4,41.507,139.371
138.88099670410156,36.474002838134766,88,0803-122,Haruna,Honshu-Japan,Anthropology,1449,Stratovolcano,D6,36.474,138.881
138.73100280761719,35.357997894287109,89,0803-03=,Fuji,Honshu-Japan,Historical,3776,Stratovolcano,D4,35.358,138.731
139.19599914550781,36.556995391845703,90,0803-13=,Akagi,Honshu-Japan,Uncertain,1828,Stratovolcano,?,36.557,139.196
139.28900146484375,36.951999664306641,91,0803-131,Hiuchi,Honshu-Japan,Historical,2356,Stratovolcano,D5,36.952,139.289
139.72999572753906,39.950000762939453,92,0803-262,Megata,Honshu-Japan,Tephrochronology,291,Maars,D7,39.950,139.730
139.02400207519531,35.229999542236328,93,0803-02=,Hakone,Honshu-Japan,Radiocarbon,1438,Complex volcano,D7,35.230,139.024
139.37899780273438,36.795997619628906,94,0803-14=,Nikko-Shirane,Honshu-Japan,Historical,2578,Shield volcano,D3,36.796,139.379
139.87899780273437,39.930999755859375,95,0803-261,Kanpu,Honshu-Japan,Radiocarbon,355,Stratovolcano,D7,39.931,139.879
139.09800720214844,34.900001525878906,96,0803-01=,Izu-Tobu,Honshu-Japan,Historical,1406,Pyroclastic cones,D1,34.900,139.098
139.57899475097656,37.450000762939453,97,0803-151,Numazawa,Honshu-Japan,Radiocarbon,1100,Shield volcano,D7,37.450,139.579
139.49400329589844,36.762001037597656,98,0803-141,Nantai,Honshu-Japan,Holocene?,2486,Stratovolcano,?,36.762,139.494
139.50999450683594,36.791999816894531,99,0803-142,Omanago Group,Honshu-Japan,Holocene,2367,Lava domes,U,36.792,139.510
139.156005859375,34.215995788574219,100,0804-03=,Kozu-shima,Izu Is-Japan,Historical,572,Lava domes,D6,34.216,139.156
140.052001953125,39.096000671386719,101,0803-22=,Chokai,Honshu-Japan,Historical,2233,Stratovolcanoes,D1,39.096,140.052
139.28300476074219,34.517002105712891,102,0804-011,To-shima,Izu Is-Japan,Tephrochronology,508,Stratovolcano,D7,34.517,139.283
140.44999694824219,42.119998931884766,103,0805-021,Nigorigawa,Hokkaido-Japan,Pleistocene-Fumarolic,356,Hydrothermal field,Q,42.120,140.450
139.27299499511719,34.393001556396484,104,0804-02=,Nii-jima,Izu Is-Japan,Historical,432,Lava domes,D6,34.393,139.273
140.3070068359375,40.652999877929687,105,0803-27=,Iwaki,Honshu-Japan,Historical,1625,Stratovolcano,D3,40.653,140.307
139.77999877929687,36.896999359130859,106,0803-143,Takahara,Honshu-Japan,Holocene,1795,Stratovolcano,D7,36.897,139.780
139.39799499511719,34.721000671386719,107,0804-01=,Oshima,Izu Is-Japan,Historical,764,Stratovolcano,D1,34.721,139.398
140.6300048828125,42.8800048828125,108,0805-031,Niseko,Hokkaido-Japan,Tephrochronology,1154,Stratovolcanoes,D7,42.880,140.630
140.17999267578125,38.599994659423828,109,0803-191,Hijiori,Honshu-Japan,Radiocarbon,516,Caldera,D7,38.600,140.180
139.96600341796875,37.122001647949219,110,0803-15=,Nasu,Honshu-Japan,Historical,1915,Stratovolcanoes,D2,37.122,139.966
140.68099975585937,42.061004638671875,111,0805-02=,Komaga-take,Hokkaido-Japan,Historical,1131,Stratovolcano,D1,42.061,140.681
140.07600402832031,37.597995758056641,112,0803-16=,Bandai,Honshu-Japan,Historical,1819,Stratovolcano,D3,37.598,140.076
140.82000732421875,42.830001831054687,113,0805-032,Yotei,Hokkaido-Japan,Tephrochronology,1898,Stratovolcano,D7,42.830,140.820
140.84300231933594,42.541000366210937,114,0805-03=,Usu,Hokkaido-Japan,Historical,737,Stratovolcano,D1,42.541,140.843
139.52900695800781,34.078998565673828,115,0804-04=,Miyake-jima,Izu Is-Japan,Historical,815,Stratovolcano,D1,34.079,139.529
140.91600036621094,42.766998291015625,116,0805-033,Shiribetsu,Hokkaido-Japan,Holocene,1107,Stratovolcano,U,42.767,140.916
140.24800109863281,37.731998443603516,117,0803-18=,Azuma,Honshu-Japan,Historical,2035,Stratovolcanoes,D1,37.732,140.248
140.28599548339844,37.644001007080078,118,0803-17=,Adatara,Honshu-Japan,Historical,1718,Stratovolcanoes,D1,37.644,140.286
141.25,45.180000305175781,119,0805-041,Rishiri,Hokkaido-Japan,Radiocarbon,1721,Stratovolcano,D7,45.180,141.250
139.60499572753906,33.871002197265625,120,0804-041,Mikura-jima,Izu Is-Japan,Tephrochronology,851,Stratovolcano,D7,33.871,139.605
140.4429931640625,38.140998840332031,121,0803-19=,Zao,Honshu-Japan,Historical,1841,Complex volcano,D2,38.141,140.443
140.76100158691406,39.96099853515625,122,0803-26=,Akita-Yake-yama,Honshu-Japan,Historical,1366,Complex volcano,D1,39.961,140.761
140.88099670410156,40.655998229980469,123,0803-28=,Hakkoda Group,Honshu-Japan,Radiocarbon,1585,Stratovolcanoes,D,40.656,140.881
141.16299438476562,42.488998413085938,124,0805-034,Kuttara,Hokkaido-Japan,Tephrochronology,581,Stratovolcanoes,D3,42.489,141.163
140.80299377441406,39.757999420166016,125,0803-23=,Akita-Komaga-take,Honshu-Japan,Historical,1637,Stratovolcanoes,D1,39.758,140.803
140.91999816894531,40.470001220703125,126,0803-271,Towada,Honshu-Japan,Historical,1159,Caldera,D6,40.470,140.920
141.05599975585937,41.436000823974609,127,0803-30-,Mutsu-Hiuchi-dake,Honshu-Japan,Pleistocene-Fumarolic,781,Stratovolcano,Q,41.436,141.056
140.85699462890625,39.955001831054687,128,0803-25=,Hachimantai,Honshu-Japan,Holocene?,1614,Stratovolcano,?,39.955,140.857
139.67999267578125,33.400005340576172,129,0804-042,Kurose Hole,Izu Is-Japan,Holocene?,-107,Submarine volcano,?,33.400,139.680
141.16999816894531,41.801998138427734,130,0805-011,E-san,Hokkaido-Japan,Historical,618,Stratovolcano,D3,41.802,141.170
140.73199462890625,38.733001708984375,131,0803-20=,Narugo,Honshu-Japan,Historical,470,Caldera,D6,38.733,140.732
141.12399291992187,41.2760009765625,132,0803-29=,Osore-yama,Honshu-Japan,Historical,879,Stratovolcano,D4,41.276,141.124
140.79200744628906,38.958000183105469,133,0803-21=,Kurikoma,Honshu-Japan,Historical,1628,Stratovolcano,D2,38.958,140.792
141.33000183105469,42.700000762939453,134,0805-04=,Shikotsu,Hokkaido-Japan,Historical,1320,Caldera,D1,42.700,141.330
141.00399780273438,39.849998474121094,135,0803-24=,Iwate,Honshu-Japan,Historical,2041,Complex volcano,D2,39.850,141.004
139.76899719238281,33.130001068115234,136,0804-05=,Hachijo-jima,Izu Is-Japan,Historical,854,Stratovolcanoes,D5,33.130,139.769
139.76199340820312,32.453998565673828,137,0804-06=,Aoga-shima,Izu Is-Japan,Historical,423,Stratovolcano,D4,32.454,139.762
139.85000610351562,32.100002288818359,138,0804-061,Myojin Knoll,Izu Is-Japan,Holocene?,360,Submarine volcano,?,32.100,139.850
139.91999816894531,31.879999160766602,139,0804-07=,Bayonnaise Rocks,Izu Is-Japan,Historical,11,Submarine volcano,D1,31.880,139.920
140.05400085449219,31.435998916625977,140,0804-08=,Smith Rock,Izu Is-Japan,Historical,136,Submarine volcano,D2,31.436,140.054
142.69000244140625,43.416000366210938,141,0805-05=,Tokachi,Hokkaido-Japan,Historical,2077,Stratovolcanoes,D1,43.416,142.690
142.85800170898437,43.660999298095703,142,0805-06=,Daisetsu,Hokkaido-Japan,Tephrochronology,2290,Stratovolcanoes,D6,43.661,142.858
140.30599975585937,30.479999542236328,143,0804-09=,Tori-shima,Izu Is-Japan,Historical,394,Stratovolcano,D1,30.480,140.306
143.03599548339844,43.452999114990234,144,0805-061,Nipesotsu-Upepesanke,Hokkaido-Japan,Historical,2013,Lava domes,D3,43.453,143.036
143.09599304199219,43.312000274658203,145,0805-062,Shikaribetsu Group,Hokkaido-Japan,Holocene?,1430,Lava domes,?,43.312,143.096
144.01300048828125,43.383998870849609,146,0805-07=,Akan,Hokkaido-Japan,Historical,1499,Caldera,D1,43.384,144.013
144.42999267578125,43.549999237060547,147,0805-08=,Kutcharo,Hokkaido-Japan,Tephrochronology,999,Caldera,D6,43.550,144.430
144.56500244140625,43.569999694824219,148,0805-081,Mashu,Hokkaido-Japan,Radiocarbon,855,Caldera,D6,43.570,144.565
143.72999572753906,66.430000305175781,149,1001-03-,Balagan-Tas,Russia-NE,Historical,993,Cinder cone,D4,66.430,143.730
140.88200378417969,27.273998260498047,150,0804-092,Nishino-shima,Volcano Is-Japan,Historical,38,Caldera,D1,27.274,140.882
145.12600708007812,44.073001861572266,151,0805-082,Rausu,Hokkaido-Japan,Tephrochronology,1660,Stratovolcano,D3,44.073,145.126
145.16499328613281,44.131004333496094,152,0805-09=,Shiretoko-Iwo-zan,Hokkaido-Japan,Historical,1563,Stratovolcano,D2,44.131,145.165
145.50900268554687,43.840999603271484,153,0900-01=,Golovnin,Kuril Is,Historical,543,Caldera,D3,43.841,145.509
145.73599243164062,43.976001739501953,154,0900-02=,Mendeleev,Kuril Is,Historical,888,Stratovolcano,D3,43.976,145.736
141.10200500488281,26.121997833251953,155,0804-10=,Kaitoku Seamount,Volcano Is-Japan,Historical,-103,Submarine volcano,D1,26.122,141.102
146.13499450683594,44.419998168945313,156,0900-021,Smirnov,Kuril Is,Holocene,1189,Stratovolcano,U,44.420,146.135
146.25599670410156,44.351001739501953,157,0900-03=,Tiatia,Kuril Is,Historical,1819,Stratovolcano,D1,44.351,146.256
141.28399658203125,25.424001693725586,158,0804-11=,Kita-Iwo-jima,Volcano Is-Japan,Historical,792,Stratovolcano,D2,25.424,141.284
146.93600463867187,44.458999633789063,159,0900-04=,Berutarube,Kuril Is,Holocene,1221,Stratovolcano,U,44.459,146.936
141.28999328613281,24.753999710083008,160,0804-12=,Iwo-jima,Volcano Is-Japan,Historical,161,Caldera,D1,24.754,141.290
146.99400329589844,44.608001708984375,161,0900-041,Lvinaya Past,Kuril Is,Radiocarbon,528,Stratovolcano,D7,44.608,146.994
147.13499450683594,44.805004119873047,162,0900-05=,Atsonupuri,Kuril Is,Historical,1206,Stratovolcano,D2,44.805,147.135
147.20799255371094,45.029998779296875,163,0900-061,Unnamed,Kuril Is,Uncertain,-930,Submarine volcano,?,45.030,147.208
147.34199523925781,44.833000183105469,164,0900-06-,Bogatyr Ridge,Kuril Is,Holocene,1634,Stratovolcano,U,44.833,147.342
141.41900634765625,24.413999557495117,165,0804-121,Kita-Fukutokutai,Volcano Is-Japan,Historical,-73,Submarine volcano,D2,24.414,141.419
141.48500061035156,24.280002593994141,166,0804-13=,Fukutoku-Okanoba,Volcano Is-Japan,Historical,-14,Submarine volcano,D1,24.280,141.485
147.92500305175781,45.338001251220703,167,0900-09=,Chirip,Kuril Is,Historical,1587,Stratovolcanoes,D3,45.338,147.925
147.9219970703125,45.0260009765625,168,0900-07=,Grozny Group,Kuril Is,Historical,1211,Complex volcanoes,D1,45.026,147.922
148.02400207519531,45.097000122070313,169,0900-08=,Baransky,Kuril Is,Historical,1132,Stratovolcano,D2,45.097,148.024
148.35000610351562,45.25,170,0900-091,Golets-Tornyi Group,Kuril Is,Holocene?,442,Pyroclastic cones,?,45.250,148.350
141.94000244140625,23.497001647949219,171,0804-131,Minami-Hiyoshi,Volcano Is-Japan,Historical,-30,Submarine volcano,D1,23.497,141.940
148.85000610351562,45.5,172,0900-11-,Demon,Kuril Is,Holocene,1205,Stratovolcano,U,45.500,148.850
148.84300231933594,45.387001037597656,173,0900-10=,Medvezhia,Kuril Is,Historical,1125,Somma volcano,D1,45.387,148.843
142.30799865722656,23.075000762939453,174,0804-132,Nikko,Volcano Is-Japan,Uncertain,-391,Submarine volcano,?,23.075,142.308
149.67999267578125,45.770000457763672,175,0900-111,Ivao Group,Kuril Is,Holocene,1426,Cinder cones,U,45.770,149.680
149.83000183105469,45.880001068115234,176,0900-112,Rudakov,Kuril Is,Holocene?,542,Stratovolcano,?,45.880,149.830
149.91999816894531,45.929996490478516,177,0900-113,Tri Sestry,Kuril Is,Holocene?,998,Stratovolcano,?,45.930,149.920
150.05000305175781,46.041999816894531,178,0900-12=,Kolokol Group,Kuril Is,Historical,1328,Somma volcanoes,D1,46.042,150.050
150.5,46.099998474121094,179,0900-13-,Unnamed,Kuril Is,Uncertain,-100,Submarine volcano ?,?,46.100,150.500
150.875,46.524997711181641,180,0900-15=,Chirpoi,Kuril Is,Historical,742,Caldera,D1,46.525,150.875
151.27999877929687,46.470001220703125,181,0900-16-,Unnamed,Kuril Is,Hydrophonic,-502,Submarine volcano,D1,46.470,151.280
144.47999572753906,26.130001068115234,182,0804-093,Unnamed,Volcano Is-Japan,Uncertain,-3200,Submarine volcano ?,?,26.130,144.480
151.75,46.830001831054687,183,0900-17=,Goriaschaia Sopka,Kuril Is,Historical,891,Stratovolcano,D2,46.830,151.750
151.77999877929687,46.820003509521484,184,0900-161,Milne,Kuril Is,Holocene,1540,Somma volcano,U,46.820,151.780
151.94999694824219,46.924995422363281,185,0900-18=,Zavaritzki Caldera,Kuril Is,Historical,624,Caldera,D2,46.925,151.950
152.1199951171875,47.020000457763672,186,0900-19=,Prevo Peak,Kuril Is,Historical,1360,Stratovolcano,D3,47.020,152.120
152.22999572753906,47.119998931884766,187,0900-191,Urataman,Kuril Is,Holocene,678,Somma volcano,U,47.120,152.230
142.89999389648437,21.0,188,0804-136,Unnamed,Mariana Is-C Pacific,Uncertain,0,Submarine volcano ?,?,21.000,142.900
6.849998950958252,50.169994354248047,189,0100-01-,West Eifel Volc Field,Germany,Radiocarbon,600,Maars,D7,50.170,6.850
152.47500610351562,47.349998474121094,190,0900-20=,Ketoi,Kuril Is,Historical,1172,Stratovolcano,D2,47.350,152.475
143.47000122070312,21.930000305175781,191,0804-133,Fukujin,Volcano Is-Japan,Historical,-217,Submarine volcano,D1,21.930,143.470
152.80000305175781,47.520000457763672,192,0900-21=,Ushishur,Kuril Is,Historical,401,Caldera,D3,47.520,152.800
152.91999816894531,47.599998474121094,193,0900-211,Srednii,Kuril Is,Holocene,36,Submarine volcano,U,47.600,152.920
153.02000427246094,47.770000457763672,194,0900-22=,Rasshua,Kuril Is,Historical,956,Stratovolcano,D2,47.770,153.020
153.25,48.291999816894531,195,0900-25=,Raikoke,Kuril Is,Historical,551,Stratovolcano,D2,48.292,153.250
153.19999694824219,48.091999053955078,196,0900-24=,Sarychev Peak,Kuril Is,Historical,1496,Stratovolcano,D1,48.092,153.200
153.47999572753906,48.979999542236328,197,0900-26=,Chirinkotan,Kuril Is,Historical,724,Stratovolcano,D1,48.980,153.480
143.63699340820313,21.599998474121094,198,0804-135,Minami Kasuga,Volcano Is-Japan,Holocene,-170,Submarine volcano,U,21.600,143.637
143.71000671386719,21.76500129699707,199,0804-134,Kasuga,Volcano Is-Japan,Historical,-598,Submarine volcano,D2,21.765,143.710
153.33000183105469,48.080001831054688,200,0900-23=,Unnamed,Kuril Is,Historical,-150,Submarine volcano,D2,48.080,153.330
143.19999694824219,20.299997329711914,201,0804-137,Unnamed,Mariana Is-C Pacific,Uncertain,0,Submarine volcano ?,?,20.300,143.200
153.92999267578125,48.958000183105469,202,0900-27=,Ekarma,Kuril Is,Historical,1170,Stratovolcano,D1,48.958,153.930
154.02000427246094,48.770000457763672,203,0900-28=,Kuntomintar,Kuril Is,Pleistocene-Fumarolic,828,Hydrothermal field,Q,48.770,154.020
154.17500305175781,48.875,204,0900-29=,Sinarka,Kuril Is,Historical,934,Stratovolcano,D3,48.875,154.175
154.50799560546875,49.119998931884766,205,0900-30=,Kharimkotan,Kuril Is,Historical,1145,Stratovolcano,D2,49.120,154.508
154.69999694824219,49.349998474121094,206,0900-31=,Tao-Rusyr Caldera,Kuril Is,Historical,1325,Stratovolcano,D2,49.350,154.700
154.97999572753906,50.200000762939453,207,0900-331,Shirinki,Kuril Is,Holocene,761,Stratovolcano,U,50.200,154.980
154.80799865722656,49.569999694824219,208,0900-32=,Nemo Peak,Kuril Is,Historical,1018,Caldera,D2,49.570,154.808
155.25,50.270000457763672,209,0900-34=,Fuss Peak,Kuril Is,Historical,1772,Stratovolcano,D3,50.270,155.250
155.55000305175781,50.858001708984375,210,0900-39=,Alaid,Kuril Is,Historical,2339,Stratovolcano,D1,50.858,155.550
155.3699951171875,50.130001068115234,211,0900-35=,Karpinsky Group,Kuril Is,Historical,1345,Cones,D2,50.130,155.370
155.42999267578125,50.25,212,0900-351,Lomonosov Group,Kuril Is,Holocene,1681,Cinder cones,U,50.250,155.430
155.45799255371094,50.325000762939453,213,0900-36=,Chikurachki,Kuril Is,Historical,1816,Stratovolcanoes,D1,50.325,155.458
157.47000122070312,55.549999237060547,214,1000-273,Cherpuk Group,Kamchatka,Holocene,1868,Pyroclastic cones,U,55.550,157.470
157.80000305175781,56.470001220703125,215,1000-36-,Bolshoi-Kekuknaysky,Kamchatka,Holocene?,1401,Shield volcanoes,?,56.470,157.800
157.3800048828125,54.75,216,1000-272,Khangar,Kamchatka,Radiocarbon,2000,Stratovolcano,D5,54.750,157.380
155.97000122070312,50.549999237060547,217,0900-37-,Vernadskii Ridge,Kuril Is,Holocene,1183,Cinder cones,U,50.550,155.970
156.02000427246094,50.680000305175781,218,0900-38=,Ebeko,Kuril Is,Historical,1156,Somma volcano,D1,50.680,156.020
157.77999877929687,55.880001068115234,219,1000-30-,Bolshoi Payalpan,Kamchatka,Holocene?,1906,Shield volcanoes,?,55.880,157.780
157.72999572753906,55.680000305175781,220,1000-28=,Ichinsky,Kamchatka,Holocene,3621,Stratovolcano,U,55.680,157.730
157.97999572753906,55.819999694824219,221,1000-29-,Maly Payalpan,Kamchatka,Holocene?,1802,Shield volcanoes,?,55.820,157.980
156.55000305175781,51.599998474121094,222,1000-021,Unnamed,Kamchatka,Holocene,298,Cinder cone,U,51.600,156.550
157.02000427246094,52.569999694824219,223,1000-081,Unnamed,Kamchatka,Holocene,610,Cinder cone,U,52.570,157.020
158.3699951171875,56.369998931884766,224,1000-37-,Kulkev,Kamchatka,Holocene?,915,Shield volcano,?,56.370,158.370
158.52000427246094,56.569999694824219,225,1000-42-,Eggella,Kamchatka,Holocene?,1046,Shield volcano,?,56.570,158.520
158.3800048828125,56.080001831054688,226,1000-35-,Uksichan,Kamchatka,Holocene?,1692,Shield volcano,?,56.080,158.380
156.75,51.356998443603516,227,1000-02=,Koshelev,Kamchatka,Historical,1812,Stratovolcano,D5,51.357,156.750
156.72000122070312,51.099998474121094,228,1000-001,Mashkovtsev,Kamchatka,Holocene,503,Stratovolcano,U,51.100,156.720
158.3800048828125,55.580001831054688,229,1000-33-,Kozyrevsky,Kamchatka,Holocene?,2016,Shield volcano,?,55.580,158.380
156.8699951171875,51.299999237060547,230,1000-01=,Kambalny,Kamchatka,Holocene,2156,Stratovolcano,U,51.300,156.870
158.66999816894531,56.330001831054688,231,1000-38-,Geodesistoy,Kamchatka,Holocene?,1170,Shield volcano,?,56.330,158.670
157.33500671386719,52.543003082275391,232,1000-08=,Opala,Kamchatka,Radiocarbon,2475,Caldera,D6,52.543,157.335
157.0,51.430004119873047,233,1000-022,Diky Greben,Kamchatka,Radiocarbon,1070,Lava domes,D6,51.430,157.000
158.94999694824219,56.819999694824219,234,1000-43-,Unnamed,Kamchatka,Holocene?,1185,Shield volcano,?,56.820,158.950
157.32200622558594,52.14599609375,235,1000-055,Ostanets,Kamchatka,Holocene,719,Shield volcanoes,U,52.146,157.322
158.85000610351562,56.400001525878906,236,1000-41-,Kekurny,Kamchatka,Holocene?,1377,Shield volcanoes,?,56.400,158.850
158.83000183105469,56.319999694824219,237,1000-39-,Anaun,Kamchatka,Holocene?,1828,Stratovolcano,?,56.320,158.830
158.47000122070312,55.200000762939453,238,1000-31-,Plosky,Kamchatka,Holocene?,1236,Shield volcano,?,55.200,158.470
157.1199951171875,51.450000762939453,239,1000-023,Kurile Lake,Kamchatka,Radiocarbon,104,Caldera,D7,51.450,157.120
157.42799377441406,52.220005035400391,240,1000-056,Otdelniy,Kamchatka,Holocene,791,Shield volcanoes,U,52.220,157.428
157.58000183105469,52.630001068115234,241,1000-082,Tolmachev Dol,Kamchatka,Radiocarbon,1021,Cinder cones,D6,52.630,157.580
157.27000427246094,51.75,242,1000-042,Belenkaya,Kamchatka,Holocene,892,Stratovolcano,U,51.750,157.270
158.07000732421875,53.904998779296875,243,1000-123,Bakening,Kamchatka,Tephrochronology,2278,Stratovolcano,D7,53.905,158.070
158.05000305175781,53.830001831054688,244,1000-122,Kostakan,Kamchatka,Holocene,1150,Cinder cones,D6,53.830,158.050
157.19999694824219,51.490001678466797,245,1000-03=,Ilyinsky,Kamchatka,Historical,1578,Stratovolcano,D2,51.490,157.200
158.64999389648437,55.430000305175781,246,1000-32-,Akhtang,Kamchatka,Holocene?,1956,Shield volcano,?,55.430,158.650
157.3800048828125,51.880001068115234,247,1000-051,Ozernoy,Kamchatka,Holocene,562,Shield volcano,U,51.880,157.380
159.02999877929687,56.369998931884766,248,1000-40-,Krainy,Kamchatka,Holocene?,1554,Shield volcano,?,56.370,159.030
157.77999877929687,52.900001525878906,249,1000-087,Bolshe-Bannaya,Kamchatka,Holocene,1200,Lava domes,U,52.900,157.780
158.80000305175781,55.650001525878906,250,1000-34-,Romanovka,Kamchatka,Holocene?,1442,Stratovolcano,?,55.650,158.800
157.35000610351562,51.650001525878906,251,1000-041,Kell,Kamchatka,Holocene,900,Stratovolcanoes,U,51.650,157.350
157.322998046875,51.569999694824219,252,1000-04=,Zheltovsky,Kamchatka,Historical,1953,Stratovolcano,D1,51.570,157.323
157.52999877929687,52.020000457763672,253,1000-052,Olkoviy Volc Group,Kamchatka,Holocene,681,Volcanic field,U,52.020,157.530
144.89999389648437,20.530002593994141,254,0804-14=,Farallon de Pajaros,Mariana Is-C Pacific,Historical,360,Stratovolcano,D1,20.530,144.900
157.52999877929687,51.799999237060547,255,1000-05=,Ksudach,Kamchatka,Historical,1079,Stratovolcano,D2,51.800,157.530
158.38499450683594,53.904998779296875,256,1000-124,Zavaritsky,Kamchatka,Radiocarbon,1567,Cinder cones,D7,53.905,158.385
157.7030029296875,52.062999725341797,257,1000-053,Khodutka,Kamchatka,Radiocarbon,2090,Stratovolcanoes,D7,52.063,157.703
157.78700256347656,52.26300048828125,258,1000-057,Golaya,Kamchatka,Holocene,858,Stratovolcano,U,52.263,157.787
157.82699584960937,52.354999542236328,259,1000-058,Asacha,Kamchatka,Holocene,1910,Complex volcano,U,52.355,157.827
157.92999267578125,52.429996490478516,260,1000-059,Visokiy,Kamchatka,Holocene,1234,Stratovolcano,U,52.430,157.930
158.44999694824219,53.75,261,1000-121,Veer,Kamchatka,Tephrochronology,520,Cinder cones,D6,53.750,158.450
157.8489990234375,52.112998962402344,262,1000-054,Piratkovsky,Kamchatka,Holocene,1322,Stratovolcano,U,52.113,157.849
158.02999877929687,52.557998657226563,263,1000-07=,Gorely,Kamchatka,Historical,1829,Caldera,D1,52.558,158.030
159.52999877929687,56.520000457763672,264,1000-44-,Verkhovoy,Kamchatka,Holocene?,1400,Shield volcano,?,56.520,159.530
159.83000183105469,57.299999237060547,265,1000-54-,Leutongey,Kamchatka,Holocene?,1333,Shield volcano,?,57.300,159.830
159.66999816894531,56.819999694824219,266,1000-46-,Cherny,Kamchatka,Holocene?,1778,Stratovolcano,?,56.820,159.670
159.64999389648437,56.700000762939453,267,1000-45-,Alney-Chashakondzha,Kamchatka,Tephrochronology,2598,Stratovolcano,D7,56.700,159.650
159.77999877929687,56.970001220703125,268,1000-49-,Bliznets,Kamchatka,Holocene?,1244,Stratovolcano,?,56.970,159.780
145.02999877929687,20.420001983642578,269,0804-141,Ahyi,Mariana Is-C Pacific,Seismicity,-137,Submarine volcano,D1,20.420,145.030
159.97000122070312,57.319999694824219,270,1000-55-,Tuzovsky,Kamchatka,Holocene?,1533,Shield volcanoes,?,57.320,159.970
158.27000427246094,52.823001861572266,271,1000-084,Barkhatnaya Sopka,Kamchatka,Tephrochronology,870,Lava domes,D7,52.823,158.270
159.80000305175781,56.849998474121094,272,1000-47-,Pogranychny,Kamchatka,Holocene?,1427,Shield volcanoes,?,56.850,159.800
158.30000305175781,52.880001068115234,273,1000-086,Unnamed,Kamchatka,Holocene,700,Shield volcanoes,U,52.880,158.300
159.92999267578125,57.099998474121094,274,1000-50-,Kebeney,Kamchatka,Holocene?,1527,Shield volcano,?,57.100,159.930
158.19500732421875,52.452999114990234,275,1000-06=,Mutnovsky,Kamchatka,Historical,2322,Complex volcano,D1,52.453,158.195
160.25,57.830001831054688,276,1000-63-,Plosky,Kamchatka,Holocene?,1255,Shield volcano,?,57.830,160.250
158.30000305175781,52.680000305175781,277,1000-083,Vilyuchik,Kamchatka,Tephrochronology,2173,Stratovolcano,D7,52.680,158.300
160.10000610351562,57.400001525878906,278,1000-56-,Titila,Kamchatka,Holocene?,1559,Shield volcanoes,?,57.400,160.100
160.08000183105469,57.229999542236328,279,1000-52-,Sedankinsky,Kamchatka,Holocene?,1241,Shield volcano,?,57.230,160.080
159.94999694824219,56.880001068115234,280,1000-48-,Zaozerny,Kamchatka,Holocene?,1349,Shield volcanoes,?,56.880,159.950
160.25,57.470001220703125,281,1000-57-,Mezhdusopochny,Kamchatka,Holocene?,1641,Shield volcano,?,57.470,160.250
160.19999694824219,57.330001831054688,282,1000-53-,Gorny Institute,Kamchatka,Holocene?,2125,Stratovolcano,?,57.330,160.200
158.52000427246094,52.919998168945313,283,1000-085,Unnamed,Kamchatka,Holocene,450,Shield volcanoes,U,52.920,158.520
160.6199951171875,58.369998931884766,284,1000-72-,Voyampolsky,Kamchatka,Holocene?,1225,Shield volcanoes,?,58.370,160.620
158.68800354003906,53.319999694824219,285,1000-09=,Koryaksky,Kamchatka,Historical,3456,Stratovolcano,D2,53.320,158.688
160.39999389648437,57.700000762939453,286,1000-60-,Alngey,Kamchatka,Holocene?,1853,Stratovolcano,?,57.700,160.400
160.52999877929687,57.880001068115234,287,1000-64-,Bely,Kamchatka,Holocene?,2080,Shield volcanoes,?,57.880,160.530
160.3699951171875,57.450000762939453,288,1000-58-,Shishel,Kamchatka,Holocene?,2525,Shield volcano,?,57.450,160.370
158.9219970703125,53.637001037597656,289,1000-11=,Dzenzursky,Kamchatka,Holocene,2285,Compound volcano,U,53.637,158.922
145.10000610351562,20.130001068115234,290,0804-142,Supply Reef,Mariana Is-C Pacific,Hydrophonic,-8,Submarine volcano,D1,20.130,145.100
160.64999389648437,57.970001220703125,291,1000-65-,Atlasova,Kamchatka,Holocene?,1764,Shield volcanoes,?,57.970,160.650
158.83000183105469,53.255001068115234,292,1000-10=,Avachinsky,Kamchatka,Historical,2741,Stratovolcano,D1,53.255,158.830
160.58000183105469,57.700000762939453,293,1000-61-,Uka,Kamchatka,Holocene?,1643,Shield volcano,?,57.700,160.580
160.52999877929687,57.529998779296875,294,1000-59-,Elovsky,Kamchatka,Tephrochronology,1381,Shield volcanoes,D7,57.530,160.530
160.77000427246094,58.080001831054688,295,1000-67-,Iktunup,Kamchatka,Holocene?,2300,Shield volcanoes,?,58.080,160.770
160.75,58.020000457763672,296,1000-66-,Snezhniy,Kamchatka,Holocene?,2169,Shield volcano,?,58.020,160.750
160.39999389648437,57.130001068115234,297,1000-51-,Fedotych,Kamchatka,Holocene?,965,Shield volcano,?,57.130,160.400
160.82000732421875,58.180000305175781,298,1000-68-,Ostry,Kamchatka,Holocene?,2552,Stratovolcanoes,?,58.180,160.820
160.66999816894531,57.799999237060547,299,1000-62-,Kaileney,Kamchatka,Holocene?,1582,Shield volcano,?,57.800,160.670
160.8699951171875,58.279998779296875,300,1000-70-,Severny,Kamchatka,Holocene?,1936,Shield volcano,?,58.280,160.870
160.97000122070312,58.200000762939453,301,1000-69-,Snegovoy,Kamchatka,Holocene?,2169,Shield volcano,?,58.200,160.970
159.14700317382812,53.590000152587891,302,1000-12=,Zhupanovsky,Kamchatka,Historical,2958,Compound volcano,D2,53.590,159.147
161.08000183105469,58.400001525878906,303,1000-71-,Iettunup,Kamchatka,Holocene?,1340,Shield volcanoes,?,58.400,161.080
145.22000122070312,20.019998550415039,304,0804-143,Maug Islands,Mariana Is-C Pacific,Holocene?,227,Stratovolcano,?,20.020,145.220
159.42999267578125,54.049999237060547,305,1000-13=,Karymsky,Kamchatka,Historical,1536,Stratovolcano,D1,54.050,159.430
159.44999694824219,53.979999542236328,306,1000-125,Akademia Nauk,Kamchatka,Historical,1180,Stratovolcanoes,D1,53.980,159.450
159.80000305175781,54.529998779296875,307,1000-16-,Taunshits,Kamchatka,Radiocarbon,2353,Stratovolcano,D7,54.530,159.800
160.33000183105469,55.830001831054688,308,1000-24=,Tolbachik,Kamchatka,Historical,3682,Shield volcano,D1,55.830,160.330
159.66999816894531,54.130001068115234,309,1000-14=,Maly Semiachik,Kamchatka,Historical,1560,Caldera,D2,54.130,159.670
160.47000122070312,56.104999542236328,310,1000-261,Ushkovsky,Kamchatka,Historical,3943,Compound volcano,D3,56.105,160.470
159.97000122070312,54.5,311,1000-17=,Uzon,Kamchatka,Radiocarbon,1617,Calderas,D7,54.500,159.970
160.59300231933594,56.020000457763672,312,1000-251,Kamen,Kamchatka,Holocene,4585,Stratovolcano,U,56.020,160.593
160.58700561523437,55.978000640869141,313,1000-25=,Bezymianny,Kamchatka,Historical,2882,Stratovolcano,D1,55.978,160.587
160.63800048828125,56.056999206542969,314,1000-26=,Kliuchevskoi,Kamchatka,Historical,4835,Stratovolcano,D1,56.057,160.638
160.52699279785156,55.755001068115234,315,1000-241,Udina,Kamchatka,Holocene,2923,Stratovolcanoes,U,55.755,160.527
160.60299682617188,55.86199951171875,316,1000-242,Zimina,Kamchatka,Holocene,3081,Stratovolcanoes,U,55.862,160.603
160.32000732421875,55.130001068115234,317,1000-23=,Kizimen,Kamchatka,Historical,2376,Stratovolcano,D2,55.130,160.320
160.02000427246094,54.319999694824219,318,1000-15=,Bolshoi Semiachik,Kamchatka,Radiocarbon,1720,Stratovolcanoes,D7,54.320,160.020
160.27299499511719,54.592998504638672,319,1000-19=,Krasheninnikov,Kamchatka,Radiocarbon,1856,Caldera,D5,54.593,160.273
160.25300598144531,54.487003326416016,320,1000-18=,Kikhpinych,Kamchatka,Radiocarbon,1552,Stratovolcanoes,D5,54.487,160.253
145.39999389648437,19.670001983642578,321,0804-15=,Asuncion,Mariana Is-C Pacific,Historical,857,Stratovolcano,D2,19.670,145.400
-65.599990844726563,88.269996643066406,322,1707-01-,Unnamed,Arctic Ocean,Uncertain,-1500,Submarine volcano,?,88.270,-65.600
-8.169997215270996,71.080001831054688,323,1706-01=,Jan Mayen,Atlantic-N-Jan Mayen,Historical,2277,Stratovolcano,D1,71.080,-8.170
160.52699279785156,54.752998352050781,324,1000-20=,Kronotsky,Kamchatka,Historical,3528,Stratovolcano,D2,54.753,160.527
161.36000061035156,56.652999877929688,325,1000-27=,Shiveluch,Kamchatka,Historical,3283,Stratovolcano,D1,56.653,161.360
160.6300048828125,54.919998168945313,326,1000-201,Schmidt,Kamchatka,Holocene,2020,Shield volcano,U,54.920,160.630
160.72000122070313,55.032001495361328,327,1000-22=,Komarov,Kamchatka,Radiocarbon,2070,Stratovolcano,D6,55.032,160.720
160.70199584960937,54.972999572753906,328,1000-21=,Gamchen,Kamchatka,Tephrochronology,2576,Complex volcano,D7,54.973,160.702
160.77000427246094,55.069999694824219,329,1000-221,Vysoky,Kamchatka,Radiocarbon,2161,Stratovolcano,D7,55.070,160.770
161.75,55.919998168945313,330,1000-232,Unnamed,Kamchatka,Holocene?,0,Cinder cones,?,55.920,161.750
2.74999737739563,45.5,331,0100-02-,Chaine des Puys,France,Radiocarbon,1464,Cinder cones,D7,45.500,2.750
145.66999816894531,18.769998550415039,332,0804-16=,Agrigan,Mariana Is-C Pacific,Historical,965,Stratovolcano,D2,18.770,145.670
145.80000305175781,18.129999160766602,333,0804-17=,Pagan,Mariana Is-C Pacific,Historical,570,Stratovolcanoes,D1,18.130,145.800
145.83000183105469,17.600002288818359,334,0804-18=,Alamagan,Mariana Is-C Pacific,Radiocarbon,744,Stratovolcano,D6,17.600,145.830
2.529998540878296,42.169998168945313,335,0100-03-,Olot Volc Field,Spain,Holocene?,893,Pyroclastic cones,?,42.170,2.530
145.85000610351562,17.320001602172852,336,0804-19=,Guguan,Mariana Is-C Pacific,Historical,287,Stratovolcano,D3,17.320,145.850
145.77999877929687,16.708000183105469,337,0804-191,Sarigan,Mariana Is-C Pacific,Holocene,538,Stratovolcano,U,16.708,145.780
145.66999816894531,16.350000381469727,338,0804-20=,Anatahan,Mariana Is-C Pacific,Historical,788,Stratovolcano,D1,16.350,145.670
144.77499389648437,14.600997924804687,339,0804-211,NW Rota 1,Mariana Is-C Pacific,Historical,-517,Submarine volcano,D1,14.601,144.775
145.57000732421875,15.620000839233398,340,0804-201,Ruby,Mariana Is-C Pacific,Historical,-230,Submarine volcano,D1,15.620,145.570
145.25,14.999998092651367,341,0804-21=,Esmeralda Bank,Mariana Is-C Pacific,Fumarolic,-43,Submarine volcano,U,15.000,145.250
167.32711791992187,55.418399810791016,342,1000-271,Piip,Kamchatka-E of,Tephrochronology,-300,Submarine volcano,D7,55.420,167.330
-17.100000381469727,66.300003051757813,343,1703-10=,Tjornes Fracture Zone,Iceland-N of,Historical,0,Submarine volcano,D3,66.300,-17.100
-16.829996109008789,65.879997253417969,344,1703-09=,Theistareykjarbunga,Iceland,Tephrochronology,564,Shield volcano,D7,65.880,-16.830
-16.780000686645508,65.730003356933594,345,1703-08=,Krafla,Iceland-NE,Historical,650,Caldera,D1,65.730,-16.780
-16.649995803833008,65.430000305175781,346,1703-07=,Fremrinamur,Iceland-NE,Tephrochronology,939,Stratovolcano,D7,65.430,-16.650
-16.750005722045898,65.029998779296875,347,1703-06=,Askja,Iceland-NE,Historical,1516,Stratovolcano,D2,65.030,-16.750
-18.499998092651367,66.669998168945313,348,1705-01=,Kolbeinsey Ridge,Iceland-N of,Historical,5,Submarine volcano,D4,66.670,-18.500
-16.719999313354492,64.650001525878906,349,1703-05=,Kverkfjoll,Iceland-NE,Historical,1920,Stratovolcano,D1,64.650,-16.720
-16.649997711181641,64.269996643066406,350,1704-02=,Esjufjoll,Iceland-SE,Historical,1760,Stratovolcano,D2,64.270,-16.650
-16.649999618530273,64.0,351,1704-01=,Oraefajokull,Iceland-SE,Historical,2119,Stratovolcano,D4,64.000,-16.650
-17.530002593994141,64.629997253417969,352,1703-03=,B rdarbunga,Iceland-NE,Historical,2000,Stratovolcano,D2,64.630,-17.530
-17.329998016357422,64.419998168945313,353,1703-01=,Grimsvotn,Iceland-NE,Historical,1725,Caldera,D1,64.420,-17.330
-17.920000076293945,64.730003356933594,354,1703-04=,Tungnafellsjokull,Iceland-NE,Holocene,1535,Stratovolcano,U,64.730,-17.920
-17.799997329711914,64.480003356933594,355,1703-02=,Loki-Fogrufjoll,Iceland-NE,Historical,1570,Subglacial volcano,D2,64.480,-17.800
-18.920001983642578,64.779998779296875,356,1701-09=,Hofsjokull,Iceland-SW,Holocene,1782,Subglacial volcano,U,64.780,-18.920
-19.319999694824219,64.629997253417969,357,1701-10=,Kerlingarfjoll,Iceland-SW,Holocene,1488,Stratovolcano,U,64.630,-19.320
-19.980001449584961,64.75,358,1701-08=,Langjokull,Iceland-SW,Radiocarbon,1360,Stratovolcano,D6,64.750,-19.980
-19.170000076293945,63.919998168945313,359,1702-05=,Torfajokull,Iceland-S,Historical,1259,Stratovolcano,D6,63.920,-19.170
-19.049997329711914,63.630001068115234,360,1702-03=,Katla,Iceland-S,Historical,1512,Subglacial volcano,D2,63.630,-19.050
-19.700000762939453,63.979999542236328,361,1702-07=,Hekla,Iceland-S,Historical,1491,Stratovolcano,D1,63.980,-19.700
-19.670000076293945,63.919998168945313,362,1702-06=,Vatnafjoll,Iceland-S,Tephrochronology,1235,Fissure vents,D6,63.920,-19.670
-19.569997787475586,63.779998779296875,363,1702-04=,Tindfjallajokull,Iceland-S,Holocene,1463,Stratovolcano,U,63.780,-19.570
-20.579998016357422,64.599998474121094,364,1701-07=,Prestahnukur,Iceland-SW,Radiocarbon,1390,Subglacial volcano,D7,64.600,-20.580
-19.620002746582031,63.630001068115234,365,1702-02=,Eyjafjoll,Iceland-S,Historical,1666,Stratovolcano,D3,63.630,-19.620
-20.870002746582031,64.029998779296875,366,1701-06=,Grimsnes,Iceland-SW,Tephrochronology,214,Crater rows,D7,64.030,-20.870
-20.280000686645508,63.430000305175781,367,1702-01=,Vestmannaeyjar,Iceland-S,Historical,279,Submarine volcanoes,D1,63.430,-20.280
-21.329998016357422,64.180000305175781,368,1701-05=,Hengill,Iceland-SW,Radiocarbon,803,Crater rows,D6,64.180,-21.330
-22.229999542236328,64.870002746582031,369,1700-03=,Ljosufjoll,Iceland-W,Anthropology,988,Fissure vents,D6,64.870,-22.230
-21.830001831054688,63.919998168945313,370,1701-04=,Brennisteinsfjoll,Iceland-SW,Historical,626,Crater rows,D6,63.920,-21.830
-22.100002288818359,63.930000305175781,371,1701-03=,Kr¡suv¡k,Iceland-SW,Historical,379,Crater rows,D6,63.930,-22.100
-23.25,64.870002746582031,372,1700-02=,Lysuholl,Iceland-W,Holocene,540,Pyroclastic cones,U,64.870,-23.250
-22.500001907348633,63.880001068115234,373,1701-02=,Reykjanes,Iceland-SW,Historical,230,Crater rows,D6,63.880,-22.500
-23.780002593994141,64.800003051757812,374,1700-01=,Snaefellsjokull,Iceland-W,Radiocarbon,1448,Stratovolcano,D6,64.800,-23.780
-23.329998016357422,63.669998168945313,375,1701-01=,Reykjaneshryggur,Iceland-SW,Historical,80,Submarine volcanoes,D1,63.670,-23.330
175.90797424316406,52.348434448242187,376,1101-01-,Buldir,Aleutian Is,Holocene?,656,Stratovolcano,?,52.350,175.911
-170.43270874023437,63.599109649658203,377,1104-05-,Kookooligit Mountains,Alaska-W,Holocene,673,Shield volcano,U,63.600,-170.430
177.59915161132812,52.1014404296875,378,1101-02-,Kiska,Aleutian Is,Historical,1220,Stratovolcano,D1,52.103,177.602
178.13316345214844,52.013442993164063,379,1101-03-,Segula,Aleutian Is,Holocene,1160,Stratovolcano,U,52.015,178.136
178.32717895507812,51.968448638916016,380,1101-04-,Davidof,Aleutian Is,Holocene?,328,Stratovolcano,?,51.970,178.330
-163.92268371582031,65.599281311035156,381,1104-06-,Imuruk Lake,Alaska-W,Radiocarbon,610,Shield volcanoes,D6,65.600,-163.920
178.54019165039062,51.948451995849609,382,1101-05-,Little Sitkin,Aleutian Is,Historical,1174,Stratovolcano,D3,51.950,178.543
179.5772705078125,51.928466796875,383,1101-06-,Semisopochnoi,Aleutian Is,Historical,1221,Stratovolcano,D1,51.930,179.580
-178.79261779785156,51.788524627685547,384,1101-07-,Gareloi,Aleutian Is,Historical,1573,Stratovolcano,D1,51.790,-178.790
-178.14256286621094,51.883567810058594,385,1101-08-,Tanaga,Aleutian Is,Historical,1806,Stratovolcanoes,D2,51.885,-178.140
-162.12245178222656,63.449256896972656,386,1104-04-,St. Michael,Alaska-W,Anthropology,715,Shield volcanoes,U,63.450,-162.120
-178.00254821777344,51.871566772460938,387,1101-09-,Takawangha,Aleutian Is,Holocene,1449,Stratovolcano,U,51.873,-178.000
-177.4324951171875,51.908592224121094,388,1101-10-,Bobrof,Aleutian Is,Holocene?,738,Stratovolcano,?,51.910,-177.430
-164.47233581542969,61.429210662841797,389,1104-03-,Ingakslugwat Hills,Alaska-W,Holocene,190,Cinder cones,U,61.430,-164.470
-177.16250610351562,51.921600341796875,390,1101-11-,Kanaga,Aleutian Is,Historical,1307,Stratovolcano,D1,51.923,-177.160
-166.33226013183594,60.019199371337891,391,1104-02-,Nunivak Island,Alaska-W,Holocene,511,Shield volcano,U,60.020,-166.330
-176.74247741699219,51.942619323730469,392,1101-111,Moffett,Aleutian Is,Holocene?,1196,Stratovolcano,?,51.944,-176.740
-170.3023681640625,57.179035186767578,393,1104-01-,St. Paul Island,Alaska-W,Radiocarbon,203,Shield volcano,D7,57.180,-170.300
-176.59248352050781,51.986621856689453,394,1101-112,Adagdak,Aleutian Is,Holocene?,610,Stratovolcano,?,51.988,-176.590
-176.13247680664062,52.074657440185547,395,1101-12-,Great Sitkin,Aleutian Is,Historical,1740,Stratovolcano,D1,52.076,-176.130
-175.50244140625,52.175689697265625,396,1101-13-,Kasatochi,Aleutian Is,Historical,314,Stratovolcano,D4,52.177,-175.500
-175.13243103027344,52.218708038330078,397,1101-14-,Koniuji,Aleutian Is,Uncertain,273,Stratovolcano,?,52.220,-175.130
-174.93240356445312,52.028701782226563,398,1101-15-,Sergief,Aleutian Is,Uncertain,560,Stratovolcano,?,52.030,-174.930
-174.15238952636719,52.379745483398438,399,1101-16-,Atka,Aleutian Is,Historical,1533,Stratovolcanoes,D1,52.381,-174.150
-172.51240539550781,52.313796997070313,400,1101-18-,Seguam,Aleutian Is,Historical,1054,Stratovolcanoes,D1,52.315,-172.510
-171.25234985351562,52.498851776123047,401,1101-19-,Amukta,Aleutian Is,Historical,1066,Stratovolcano,D1,52.500,-171.250
-171.13235473632812,52.575859069824219,402,1101-20-,Chagulak,Aleutian Is,Holocene,1142,Stratovolcano,U,52.577,-171.130
-170.62232971191406,52.641883850097656,403,1101-21-,Yunaska,Aleutian Is,Historical,550,Shield volcano,D2,52.643,-170.620
-170.05227661132812,52.892940521240234,404,1101-23-,Carlisle,Aleutian Is,Historical,1620,Stratovolcano,D3,52.894,-170.050
-169.77224731445312,53.063976287841797,405,1101-25-,Uliaga,Aleutian Is,Holocene,888,Stratovolcano,U,53.065,-169.770
-170.11227416992187,52.740913391113281,406,1101-22-,Herbert,Aleutian Is,Holocene,1280,Stratovolcano,U,52.742,-170.110
-169.9422607421875,52.823932647705078,407,1101-24-,Cleveland,Aleutian Is,Historical,1730,Stratovolcano,D1,52.825,-169.940
-169.72222900390625,52.97296142578125,408,1101-26-,Kagamil,Aleutian Is,Historical,893,Stratovolcano,D2,52.974,-169.720
-148.42234802246094,64.069549560546875,409,1105-001,Buzzard Creek,Alaska-E,Radiocarbon,830,Tuff rings,D7,64.070,-148.420
-168.03195190429688,53.92913818359375,410,1101-30-,Bogoslof,Aleutian Is,Historical,150,Submarine volcano,D1,53.930,-168.030
-168.69204711914062,53.129047393798828,411,1101-27-,Vsevidof,Aleutian Is,Historical,2149,Stratovolcano,D3,53.130,-168.690
-168.53201293945312,53.156059265136719,412,1101-28-,Recheschnoi,Aleutian Is,Holocene,1984,Stratovolcano,U,53.157,-168.530
-168.1319580078125,53.429100036621094,413,1101-29-,Okmok,Aleutian Is,Historical,1073,Shield volcano,D1,53.430,-168.130
-166.92189025878906,53.890148162841797,414,1101-31-,Makushin,Aleutian Is,Historical,1800,Stratovolcano,D1,53.891,-166.920
-166.67189025878906,53.967132568359375,415,1101-311,Table Top-Wide Bay,Aleutian Is,Holocene,792,Cinder cones,U,53.968,-166.670
-152.41217041015625,61.639411926269531,416,1103-05-,Hayes,Alaska-SW,Radiocarbon,3034,Stratovolcano,D6,61.640,-152.410
-165.98194885253906,54.133129119873047,417,1101-32-,Akutan,Aleutian Is,Historical,1303,Stratovolcano,D1,54.134,-165.980
-152.25213623046875,61.298408508300781,418,1103-04-,Spurr,Alaska-SW,Historical,3374,Stratovolcano,D1,61.299,-152.250
-164.65196228027344,54.517101287841797,419,1101-34-,Westdahl,Aleutian Is,Historical,1654,Stratovolcano ?,D1,54.518,-164.650
-164.43196105957031,54.64910888671875,420,1101-35-,Fisher,Aleutian Is,Historical,1112,Stratovolcano,D3,54.650,-164.430
-163.14202880859375,55.423122406005859,421,1101-39-,Amak,Aleutian Is,Historical,488,Stratovolcano,D4,55.424,-163.140
-163.97198486328125,54.755115509033203,422,1101-36-,Shishaldin,Aleutian Is,Historical,2857,Stratovolcano,D1,54.756,-163.970
-163.72198486328125,54.764114379882813,423,1101-37-,Isanotski,Aleutian Is,Uncertain,2446,Stratovolcano,U,54.765,-163.720
-152.74227905273438,60.484405517578125,424,1103-03-,Redoubt,Alaska-SW,Historical,3108,Stratovolcano,D1,60.485,-152.740
-163.58198547363281,54.799114227294922,425,1101-38-,Roundtop,Aleutian Is,Holocene,1871,Stratovolcano,U,54.800,-163.580
-162.81201171875,55.081123352050781,426,1102-01-,Frosty,Alaska Peninsula,Holocene,2012,Stratovolcanoes,U,55.082,-162.810
-153.09222412109375,60.031383514404297,427,1103-02-,Iliamna,Alaska-SW,Historical,3053,Stratovolcano,D3,60.032,-153.090
-162.07203674316406,55.340137481689453,428,1102-02-,Emmons Lake,Alaska Peninsula,Holocene,1436,Caldera,U,55.341,-162.070
-161.84201049804687,55.4521484375,429,1102-04-,Pavlof Sister,Alaska Peninsula,Historical,2142,Stratovolcano,D4,55.453,-161.840
-161.88201904296875,55.419143676757813,430,1102-03-,Pavlof,Alaska Peninsula,Historical,2519,Stratovolcano,D1,55.420,-161.880
-162.27203369140625,55.167125701904297,431,1102-011,Dutton,Alaska Peninsula,Holocene,1506,Stratovolcano,U,55.168,-162.270
-161.21202087402344,55.640167236328125,432,1102-05-,Dana,Alaska Peninsula,Radiocarbon,1354,Stratovolcano,D7,55.641,-161.210
-153.43211364746094,59.362346649169922,433,1103-01-,Augustine,Alaska-SW,Historical,1252,Lava domes,D1,59.363,-153.430
-156.5120849609375,57.831275939941406,434,1102-131,Ukinrek Maars,Alaska Peninsula,Historical,91,Maars,D1,57.832,-156.510
-160.00204467773437,55.929191589355469,435,1102-051,Stepovak,Alaska Peninsula,Holocene,1555,Cinder cones,U,55.930,-160.000
-159.79205322265625,56.010196685791016,436,1102-06-,Kupreanof,Alaska Peninsula,Historical,1895,Stratovolcano,D1,56.011,-159.790
-158.17205810546875,56.879230499267578,437,1102-09-,Aniakchak,Alaska Peninsula,Historical,1341,Caldera,D2,56.880,-158.170
-158.78204345703125,56.551212310791016,438,1102-08-,Black Peak,Alaska Peninsula,Radiocarbon,1032,Stratovolcano,D7,56.552,-158.780
-156.36209106445312,57.750278472900391,439,1102-13-,Ugashik-Peulik,Alaska Peninsula,Historical,1474,Stratovolcano,D3,57.751,-156.360
-159.38200378417969,56.169200897216797,440,1102-07-,Veniaminof,Alaska Peninsula,Historical,2507,Stratovolcano,D1,56.170,-159.380
-155.092041015625,58.353305816650391,441,1102-19-,Griggs,Alaska Peninsula,Holocene,2317,Stratovolcano,U,58.354,-155.090
-155.362060546875,58.171298980712891,442,1102-14-,Martin,Alaska Peninsula,Historical,1863,Stratovolcano,D2,58.172,-155.360
-155.15203857421875,58.269302368164063,443,1102-18-,Novarupta,Alaska Peninsula,Historical,841,Caldera,D2,58.270,-155.150
-155.25205993652344,58.194301605224609,444,1102-15-,Mageik,Alaska Peninsula,Holocene,2165,Stratovolcano,U,58.195,-155.250
-155.10205078125,58.235301971435547,445,1102-16-,Trident,Alaska Peninsula,Historical,1864,Stratovolcano,D1,58.236,-155.100
-154.96205139160156,58.279304504394531,446,1102-17-,Katmai,Alaska Peninsula,Historical,2047,Stratovolcano,D2,58.280,-154.960
-154.68202209472656,58.335311889648437,447,1102-20-,Snowy Mountain,Alaska Peninsula,Holocene,2162,Stratovolcanoes,U,58.336,-154.680
-153.54206848144531,58.854331970214844,448,1102-27-,Douglas,Alaska Peninsula,Holocene,2140,Stratovolcano,U,58.855,-153.540
-154.44203186035156,58.417316436767578,449,1102-21-,Denison,Alaska Peninsula,Uncertain,2287,Stratovolcano,?,58.418,-154.440
-153.67207336425781,58.769329071044922,450,1102-26-,Fourpeaked,Alaska Peninsula,Holocene?,2105,Stratovolcano,?,58.770,-153.670
-154.02206420898437,58.607322692871094,451,1102-25-,Kaguyak,Alaska Peninsula,Holocene,901,Stratovolcano,D7,58.608,-154.020
-154.40202331542969,58.429317474365234,452,1102-22-,Steller,Alaska Peninsula,Holocene,2272,Stratovolcano,U,58.430,-154.400
-154.35203552246094,58.452316284179688,453,1102-23-,Kukak,Alaska Peninsula,Fumarolic,2043,Stratovolcano,U,58.453,-154.350
-156.9920654296875,57.134262084960937,454,1102-11-,Chiginagak,Alaska Peninsula,Historical,2221,Stratovolcano,D1,57.135,-156.990
-157.18205261230469,57.018257141113281,455,1102-10-,Yantarni,Alaska Peninsula,Tephrochronology,1345,Stratovolcano,D7,57.019,-157.180
-155.42207336425781,57.869297027587891,456,1102-132,Unnamed,Alaska Peninsula,Holocene,300,Lava dome,U,57.870,-155.420
-156.7420654296875,57.2022705078125,457,1102-12-,Kialagvik,Alaska Peninsula,Holocene,1677,Stratovolcano,U,57.203,-156.740
-144.13212585449219,62.219581604003906,458,1105-01-,Sanford,Alaska-E,Holocene?,4949,Shield volcano,?,62.220,-144.130
-144.02210998535156,61.999557495117188,459,1105-02-,Wrangell,Alaska-E,Historical,4317,Shield volcano,D2,62.000,-144.020
-143.08212280273438,62.129604339599609,460,1105-021,Gordon,Alaska-E,Holocene?,2755,Cinder cones,?,62.130,-143.080
-137.382080078125,62.929737091064453,461,1200-01-,Fort Selkirk,Canada,Holocene?,1239,Volcanic field,?,62.930,-137.380
-141.75204467773437,61.379604339599609,462,1105-03-,Churchill,Alaska-E,Radiocarbon,5005,Stratovolcano,D6,61.380,-141.750
-34.5,49.0,463,1801-02=,Unnamed,Atlantic-N,Historical,-1650,Submarine volcano,D3,49.000,-34.500
-13.629999160766602,29.029998779296875,464,1803-06-,Lanzarote,Canary Is,Historical,670,Fissure vents,D3,29.030,-13.630
-14.020002365112305,28.357999801635742,465,1803-05-,Fuerteventura,Canary Is,Holocene,529,Fissure vents,U,28.358,-14.020
-25.829999923706055,39.950000762939453,466,1801-03=,Unnamed,Atlantic-N,Uncertain,-2835,Submarine volcano,?,39.950,-25.830
-135.42189025878906,60.419692993164063,467,1200-02-,Alligator Lake,Canada,Holocene,2217,Volcanic field,U,60.420,-135.420
-15.579998970031738,28.0,468,1803-04-,Gran Canaria,Canary Is,Radiocarbon,1950,Fissure vents,D7,28.000,-15.580
-25.319997787475586,37.770000457763672,469,1802-10=,Furnas,Azores,Historical,805,Stratovolcano,D5,37.770,-25.320
-133.32180786132812,59.679725646972656,470,1200-03-,Atlin Volc Field,Canada,Holocene,1880,Cinder cones,U,59.680,-133.320
-25.469999313354492,37.770000457763672,471,1802-09=,Agua de Pau,Azores,Historical,947,Stratovolcano,D5,37.770,-25.470
-25.670000076293945,37.779998779296875,472,1802-081,Unnamed,Azores,Historical,350,Pyroclastic cones,D5,37.780,-25.670
-25.780000686645508,37.869998931884766,473,1802-08=,Sete Cidades,Azores,Historical,856,Stratovolcano,D3,37.870,-25.780
-16.641002655029297,28.271001815795898,474,1803-03-,Tenerife,Canary Is,Historical,3715,Stratovolcano,D2,28.271,-16.641
-25.879999160766602,37.599998474121094,475,1802-11=,Monaco Bank,Azores,Historical,-197,Submarine volcano,D2,37.600,-25.880
-26.630001068115234,38.229999542236328,476,1802-07=,Don Joao de Castro Bank,Azores,Historical,-14,Submarine volcano,D4,38.230,-26.630
-27.319997787475586,38.729999542236328,477,1802-05=,Terceira,Azores,Historical,1023,Stratovolcanoes,D1,38.730,-27.320
-27.969999313354492,39.020000457763672,478,1802-04=,Graciosa,Azores,Holocene,402,Stratovolcano,U,39.020,-27.970
-130.581787109375,59.369773864746094,479,1200-031,Tuya Volc Field,Canada,Holocene,2123,Volcanic field,U,59.370,-130.580
-28.079999923706055,38.650001525878906,480,1802-03=,San Jorge,Azores,Historical,1053,Fissure vent,D2,38.650,-28.080
-17.830001831054687,28.569999694824219,481,1803-01-,La Palma,Canary Is,Historical,2426,Stratovolcanoes,D1,28.570,-17.830
-131.97172546386719,58.599712371826172,482,1200-04-,Heart Peaks,Canada,Holocene?,2012,Shield volcano,?,58.600,-131.970
-28.400001525878906,38.470001220703125,483,1802-02=,Pico,Azores,Historical,2351,Stratovolcano,D4,38.470,-28.400
-28.729999542236328,38.599998474121094,484,1802-01=,Fayal,Azores,Historical,1043,Stratovolcano,D2,38.600,-28.730
-131.35173034667969,58.419719696044922,485,1200-05-,Level Mountain,Canada,Holocene?,2190,Shield volcano,?,58.420,-131.350
-135.75180053710937,57.049640655517578,486,1105-04-,Edgecumbe,Alaska-E,Radiocarbon,970,Stratovolcanoes,D7,57.050,-135.750
-18.030000686645508,27.729999542236328,487,1803-02-,Hierro,Canary Is,Radiocarbon,1500,Shield volcano,D4,27.730,-18.030
-31.069999694824219,39.669998168945313,488,1802-002,Corvo,Azores,Holocene,715,Stratovolcano,U,39.670,-31.070
-130.6317138671875,57.719722747802734,489,1200-06-,Edziza,Canada,Radiocarbon,2786,Stratovolcano,D6,57.720,-130.630
-31.170000076293945,39.400001525878906,490,1802-001,Flores,Azores,Radiocarbon,915,Stratovolcano,D7,39.400,-31.170
-130.68170166015625,57.429710388183594,491,1200-07-,Spectrum Range,Canada,Holocene,2430,Shield volcano,U,57.430,-130.680
-133.10173034667969,56.499652862548828,492,1105-05-,Duncan Canal,Alaska-E,Holocene,15,Volcanic field,U,56.500,-133.100
-131.28170776367187,56.779682159423828,493,1200-08-,Hoodoo Mountain,Canada,Tephrochronology,1850,Subglacial volcano,D7,56.780,-131.280
-130.55171203613281,56.579685211181641,494,1200-09-,Iskut-Unuk River Cones,Canada,Radiocarbon,1880,Cinder cones,D3,56.580,-130.550
-133.30166625976563,55.249652862548828,495,1105-06-,Tlevak Strait-Suemez Is.,Alaska-E,Holocene,50,Volcanic field,U,55.250,-133.300
-131.05169677734375,55.319664001464844,496,1105-07-,Behm Canal-Rudyerd Bay,Alaska-E,Holocene?,500,Cinder cones,?,55.320,-131.050
-128.90167236328125,55.119773864746094,497,1200-10-,Tseax River Cone,Canada,Radiocarbon,609,Pyroclastic cone,D4,55.120,-128.900
-130.231689453125,54.699714660644531,498,1200-11-,Crow Lagoon,Canada,Holocene,335,Pyroclastic cone,U,54.700,-130.230
-38.080001831054688,38.75,499,1801-04=,Unnamed,Atlantic-N,Historical,-4200,Submarine volcano,D3,38.750,-38.080
-128.73161315917969,52.499752044677734,500,1200-12-,Milbanke Sound Group,Canada,Holocene,335,Cinder cones,U,52.500,-128.730
-123.73000335693359,52.900001525878906,501,1200-14-,Nazko,Canada,Radiocarbon,1230,Cinder cones,D7,52.900,-123.730
-124.69999694824219,52.470001220703125,502,1200-13-,Satah Mountain,Canada,Holocene,1921,Volcanic field,U,52.470,-124.700
-126.30000305175781,51.430000305175781,503,1200-16-,Silverthrone,Canada,Holocene,3160,Caldera,U,51.430,-126.300
-120.56999969482422,52.330001831054688,504,1200-15-,Wells Gray-Clearwater,Canada,Dendrochronology,2015,Cinder cones,D5,52.330,-120.570
-123.40000152587891,50.799999237060547,505,1200-17-,Bridge River Cones,Canada,Holocene,2500,Volcanic field,U,50.800,-123.400
-123.5,50.630001068115234,506,1200-18-,Meager,Canada,Radiocarbon,2680,Complex volcano,D7,50.630,-123.500
-123.03131103515625,49.919830322265625,507,1200-19-,Garibaldi Lake,Canada,Holocene,2316,Volcanic field,U,49.920,-123.030
-123.00131225585937,49.849830627441406,508,1200-20-,Garibaldi,Canada,Radiocarbon,2678,Stratovolcano,D7,49.850,-123.000
-121.81125640869141,48.776844024658203,509,1201-01=,Baker,US-Washington,Historical,3285,Stratovolcanoes,D3,48.777,-121.810
-129.58149719238281,46.519779205322266,510,1301-01-,CoAxial Segment,Pacific-NE,Historical,-2400,Submarine volcano,D1,46.520,-129.580
-121.11121368408203,48.111839294433594,511,1201-02-,Glacier Peak,US-Washington,Tephrochronology,3213,Stratovolcano,D4,48.112,-121.110
-130.00151062011719,45.949783325195313,512,1301-011,Axial Seamount,Pacific-NE,Historical,-1410,Submarine volcano,D1,45.950,-130.000
-121.75120544433594,46.869827270507813,513,1201-03-,Rainier,US-Washington,Dendrochronology,4392,Stratovolcano,D3,46.870,-121.750
-130.30149841308594,44.829799652099609,514,1301-02-,Cleft Segment,Pacific-NE,Historical,-2140,Submarine volcano,D1,44.830,-130.300
-122.18120574951172,46.199832916259766,515,1201-05-,St. Helens,US-Washington,Historical,2549,Stratovolcano,D1,46.200,-122.180
-121.49119567871094,46.205844879150391,516,1201-04-,Adams,US-Washington,Tephrochronology,3742,Stratovolcano,D6,46.206,-121.490
-122.08119964599609,45.879837036132813,517,1201-06-,West Crater,US-Washington,Radiocarbon,1329,Volcanic field,D7,45.880,-122.080
-121.82118988037109,45.929840087890625,518,1201-07-,Indian Heaven,US-Washington,Radiocarbon,1806,Shield volcanoes,D7,45.930,-121.820
-121.69119262695312,45.37384033203125,519,1202-01-,Hood,US-Oregon,Historical,3426,Stratovolcano,D3,45.374,-121.690
-24.969999313354492,16.850000381469727,520,1804-04-,Sao Vicente,Cape Verde Is,Holocene,725,Stratovolcano,U,16.850,-24.970
-121.80117797851563,44.691841125488281,521,1202-02-,Jefferson,US-Oregon,Varve Count,3199,Stratovolcano,D6,44.692,-121.800
-121.77116394042969,44.419837951660156,522,1202-03-,Blue Lake Crater,US-Oregon,Radiocarbon,1230,Maar,D7,44.420,-121.770
-121.93117523193359,44.379844665527344,523,1202-04-,Sand Mountain Field,US-Oregon,Radiocarbon,1664,Cinder cones,D7,44.380,-121.930
-121.83116912841797,44.331840515136719,524,1202-05-,Washington,US-Oregon,Radiocarbon,2376,Shield volcano,D6,44.332,-121.830
-121.84116363525391,44.284839630126953,525,1202-06-,Belknap,US-Oregon,Radiocarbon,2095,Shield volcanoes,D6,44.285,-121.840
-121.77114868164062,44.169837951660156,526,1202-07-,North Sister Field,US-Oregon,Radiocarbon,3074,Complex volcano,D6,44.170,-121.770
-121.77114868164062,44.099838256835938,527,1202-08-,South Sister,US-Oregon,Radiocarbon,3157,Complex volcano,D7,44.100,-121.770
-121.68114471435547,43.978836059570312,528,1202-09-,Bachelor,US-Oregon,Tephrochronology,2763,Stratovolcano,D7,43.979,-121.680
-24.350000381469727,14.94999885559082,529,1804-01=,Fogo,Cape Verde Is,Historical,2829,Stratovolcano,D1,14.950,-24.350
-126.78130340576172,42.669830322265625,530,1301-021,North Gorda Ridge,Pacific-NE,Historical,-3000,Submarine volcano,D1,42.670,-126.780
-121.22113037109375,43.721843719482422,531,1202-11-,Newberry Volcano,US-Oregon,Radiocarbon,2434,Shield volcano,D6,43.722,-121.220
-121.82113647460937,43.569843292236328,532,1202-10-,Davis Lake,US-Oregon,Radiocarbon,2163,Volcanic field,D7,43.570,-121.820
-24.719999313354492,14.850001335144043,533,1804-02-,Brava,Cape Verde Is,Holocene,900,Stratovolcano,U,14.850,-24.720
-120.86111450195312,43.511856079101563,534,1202-12-,Devils Garden,US-Oregon,Holocene?,1698,Volcanic field,?,43.512,-120.860
-122.10114288330078,43.240848541259766,535,1202-15-,Cinnamon Butte,US-Oregon,Holocene?,1956,Cinder cones,?,43.241,-122.100
-120.75110626220703,43.471858978271484,536,1202-13-,Squaw Ridge Lava Field,US-Oregon,Holocene?,1711,Volcanic field,?,43.472,-120.750
-120.66110229492187,43.360862731933594,537,1202-14-,Four Craters Lava Field,US-Oregon,Holocene?,1501,Volcanic field,?,43.361,-120.660
-122.12113952636719,42.929851531982422,538,1202-16-,Crater Lake,US-Oregon,Radiocarbon,2487,Caldera,D7,42.930,-122.120
-110.67076110839844,44.429939270019531,539,1205-01-,Yellowstone,US-Wyoming,Tephrochronology,2805,Calderas,D7,44.430,-110.670
-163.83000183105469,23.579999923706055,540,1302-09-,Unnamed,Hawaiian Is,Historical,-4000,Submarine volcano,D2,23.580,-163.830
-118.75103759765625,43.099876403808594,541,1202-17-,Diamond Craters,US-Oregon,Holocene?,1435,Volcanic field,?,43.100,-118.750
-117.47099304199219,43.149879455566406,542,1202-19-,Jordan Craters,US-Oregon,Radiocarbon,1473,Volcanic field,D7,43.150,-117.470
-117.80100250244141,42.9998779296875,543,1202-18-,Saddle Butte,US-Oregon,Holocene?,1700,Volcanic field,?,43.000,-117.800
-113.50084686279297,43.419902801513672,544,1204-02-,Craters of the Moon,US-Idaho,Radiocarbon,2005,Cinder cones,D7,43.420,-113.500
-112.45081329345703,43.499912261962891,545,1204-04-,Hell's Half Acre,US-Idaho,Radiocarbon,1631,Shield volcano,D7,43.500,-112.450
-114.35087585449219,43.179904937744141,546,1204-01-,Shoshone Lava Field,US-Idaho,Holocene,1478,Shield volcano,D7,43.180,-114.350
-117.58098602294922,42.605876922607422,547,1202-20-,Jackies Butte,US-Oregon,Holocene?,1418,Volcanic field,?,42.606,-117.580
-121.57110595703125,41.579883575439453,548,1203-02-,Medicine Lake,US-California,Radiocarbon,2412,Shield volcano,D6,41.580,-121.570
-113.22083282470703,42.879909515380859,549,1204-03-,Wapi Lava Field,US-Idaho,Radiocarbon,1604,Shield volcano,D7,42.880,-113.220
-122.20111846923828,41.419872283935547,550,1203-01-,Shasta,US-California,Historical,4317,Stratovolcano,D4,41.420,-122.200
-121.44110107421875,41.177886962890625,551,1203-03-,Brushy Butte,US-California,Holocene?,1174,Shield volcano,?,41.178,-121.440
-121.36109161376953,40.954887390136719,552,1203-04-,Big Cave,US-California,Holocene?,1259,Shield volcano,?,40.955,-121.360
-121.60109710693359,40.779880523681641,553,1203-05-,Twin Buttes,US-California,Holocene?,1631,Cinder cones,?,40.780,-121.600
-121.55109405517578,40.679882049560547,554,1203-06-,Tumble Buttes,US-California,Holocene?,2191,Cinder cones,?,40.680,-121.550
-120.83106994628906,40.629894256591797,555,1203-09-,Eagle Lake Field,US-California,Holocene?,1652,Fissure vents,?,40.630,-120.830
-121.50109100341797,40.49188232421875,556,1203-08-,Lassen Volc Center,US-California,Historical,3187,Stratovolcano,D2,40.492,-121.500
-122.77109527587891,38.969898223876953,557,1203-10-,Clear Lake,US-California,Holocene,1439,Volcanic field,U,38.970,-122.770
-119.72101593017578,39.374912261962891,558,1206-01-,Steamboat Springs,US-Nevada,Pleistocene-Fumarolic,1415,Lava domes,Q,39.375,-119.720
-158.74723815917969,21.746479034423828,559,1302-08-,Unnamed,Hawaiian Is,Uncertain,-3000,Submarine volcano ?,?,21.750,-158.750
-107.03060150146484,39.649986267089844,560,1208-01-,Dotsero,US-Colorado,Radiocarbon,2230,Maar,D7,39.650,-107.030
-119.03097534179687,37.999923706054687,561,1203-11-,Mono Lake Volc Field,US-California,Tephrochronology,2121,Cinder cones,D4,38.000,-119.030
-112.50077819824219,38.969963073730469,562,1207-05-,Black Rock Desert,US-Utah,Radiocarbon,1800,Volcanic field,D6,38.970,-112.500
-119.0009765625,37.879928588867188,563,1203-12-,Mono Craters,US-California,Radiocarbon,2796,Lava domes,D6,37.880,-119.000
-119.02096557617187,37.691936492919922,564,1203-13-,Inyo Craters,US-California,Radiocarbon,2629,Lava domes,D6,37.692,-119.020
-118.8709716796875,37.699932098388672,565,1203-14-,Long Valley,US-California,Pleistocene-Fumarolic,3390,Caldera,Q,37.700,-118.870
-119.05096435546875,37.579940795898437,566,1203-15-,Red Cones,US-California,Radiocarbon,2748,Cinder cones,D7,37.580,-119.050
-157.79725646972656,21.366830825805664,567,1302-07-,Koolau,Hawaiian Is,Holocene?,941,Shield volcano,?,21.370,-157.800
-117.45090484619141,37.019935607910156,568,1203-16-,Ubehebe Craters,US-California,Anthropology,752,Maars,D7,37.020,-117.450
-112.67076873779297,37.579982757568359,569,1207-04-,Markagunt Plateau,US-Utah,Dendrochronology,2840,Volcanic field,D6,37.580,-112.670
-113.62079620361328,37.256980895996094,570,1207-01-,Santa Clara,US-Utah,Holocene?,1465,Volcanic field,?,37.257,-113.620
-112.4007568359375,37.327980041503906,571,1207-03-,Bald Knoll,US-Utah,Holocene,2135,Cinder cones,U,37.328,-112.400
-118.3209228515625,36.357940673828125,572,1203-17-,Golden Trout Creek,US-California,Tephrochronology,2886,Volcanic field,D7,36.358,-118.320
-156.56718444824219,20.566816329956055,573,1302-05-,Kahoolawe,Hawaiian Is,Holocene?,450,Shield volcano,?,20.570,-156.570
-117.82090759277344,36.029945373535156,574,1203-18-,Coso Volc Field,US-California,Holocene?,2400,Lava domes,?,36.030,-117.820
-156.2471923828125,20.704805374145508,575,1302-06-,Haleakala,Hawaiian Is,Anthropology,3055,Shield volcano,D4,20.708,-156.250
-113.13076019287109,36.379981994628906,576,1209-01-,Uinkaret Field,US-Arizona,Anthropology,1555,Volcanic field,D6,36.380,-113.130
-155.86721801757812,19.688962936401367,577,1302-04-,Hualalai,Hawaiian Is,Historical,2523,Shield volcano,D3,19.692,-155.870
-155.46722412109375,19.816951751708984,578,1302-03-,Mauna Kea,Hawaiian Is,Radiocarbon,4205,Shield volcano,D7,19.820,-155.470
-116.62086486816406,34.749988555908203,579,1203-19-,Lavic Lake,US-California,Holocene?,1495,Volcanic field,?,34.750,-116.620
-106.57058715820313,35.870021820068359,580,1210-03-,Valles Caldera,US-New Mexico,Pleistocene-Fumarolic,3430,Caldera,Q,35.870,-106.570
-111.50070953369141,35.370006561279297,581,1209-02-,Sunset Crater,US-Arizona,Dendrochronology,2447,Cinder cone,D6,35.370,-111.500
-155.59722900390625,19.47197151184082,582,1302-02=,Mauna Loa,Hawaiian Is,Historical,4170,Shield volcano,D1,19.475,-155.600
-155.28721618652344,19.421976089477539,583,1302-01-,Kilauea,Hawaiian Is,Historical,1222,Shield volcano,D1,19.425,-155.290
-115.78083038330078,34.549991607666016,584,1203-20-,Amboy,US-California,Holocene,288,Cinder cone,U,34.550,-115.780
-155.26722717285156,18.917240142822266,585,1302-00-,Loihi,Hawaiian Is,Historical,-975,Submarine volcano,D1,18.920,-155.270
-108.00061798095703,34.800045013427734,586,1210-02-,Zuni-Bandera,US-New Mexico,Anthropology,2550,Volcanic field,D7,34.800,-108.000
-124.25103759765625,31.750045776367188,587,1301-03-,Unnamed,Pacific-NE,Uncertain,-2533,Submarine volcano ?,?,31.750,-124.250
-105.93054962158203,33.780071258544922,588,1210-01-,Carrizozo,US-New Mexico,Holocene,1731,Cinder cone,U,33.780,-105.930
-115.30081939697266,32.418060302734375,589,1401-00-,"Prieto, Cerro",Mexico,Holocene?,223,Lava dome,?,32.418,-115.300
-113.49073791503906,31.772068023681641,590,1401-001,Pinacate,Mexico,Holocene,1200,Cinder cones,U,31.772,-113.490
-115.99079132080078,30.468107223510742,591,1401-002,San Quintin Volc Field,Mexico,Holocene?,260,Cinder cones,?,30.468,-115.990
-114.38071441650391,29.814119338989258,592,1401-003,"San Luis, Isla",Mexico,Holocene,180,Tuff cone,U,29.814,-114.380
-118.28080749511719,29.070123672485352,593,1401-006,Guadalupe,Mexico,Holocene,1100,Shield volcano,U,29.070,-118.280
-114.50070953369141,29.330131530761719,594,1401-004,Jaraguay Volc Field,Mexico,Holocene,960,Cinder cones,U,29.330,-114.500
-113.51067352294922,29.08013916015625,595,1401-005,Coronado,Mexico,Fumarolic,440,Stratovolcano,U,29.080,-113.510
-113.75065612792969,28.500150680541992,596,1401-007,San Borja Volc Field,Mexico,Holocene,1360,Cinder cones,U,28.500,-113.750
-115.00067901611328,28.000158309936523,597,1401-008,Unnamed,Mexico,Uncertain,0,Submarine volcano ?,?,28.000,-115.000
-112.59058380126953,27.470176696777344,598,1401-01=,Tres Virgenes,Mexico,Radiocarbon,1940,Stratovolcanoes,D7,27.470,-112.590
-111.85056304931641,27.392181396484375,599,1401-011,"Tortuga, Isla",Mexico,Holocene,210,Shield volcano,U,27.392,-111.850
-111.92051696777344,26.000207901000977,600,1401-012,Comondu-La Purisima,Mexico,Holocene?,780,Volcanic field,?,26.000,-111.920
-63.229999542236328,17.629997253417969,601,1600-01=,Saba,W Indies,Historical,887,Stratovolcano,D5,17.630,-63.230
-62.950000762939453,17.480001449584961,602,1600-02=,"Quill, The",W Indies,Radiocarbon,601,Stratovolcano,D6,17.480,-62.950
-62.799999237060547,17.370000839233398,603,1600-03=,Liamuiga,W Indies,Radiocarbon,1156,Stratovolcano,D6,17.370,-62.800
-62.580001831054688,17.149999618530273,604,1600-04=,Nevis Peak,W Indies,Holocene,985,Stratovolcano,U,17.150,-62.580
-62.180000305175781,16.719999313354492,605,1600-05=,Soufriere Hills,W Indies,Historical,915,Stratovolcano,D1,16.720,-62.180
-104.45028686523437,24.150293350219727,606,1401-022,Durango Volc Field,Mexico,Holocene,2075,Cinder cones,U,24.150,-104.450
-61.669998168945313,16.049999237060547,607,1600-06=,Soufriere Guadeloupe,W Indies,Historical,1467,Stratovolcano,D1,16.050,-61.670
-61.450000762939453,15.620000839233398,608,1600-08=,"Diables, Morne aux",W Indies,Holocene,861,Stratovolcano,U,15.620,-61.450
-61.419998168945313,15.500000953674316,609,1600-09=,"Diablotins, Morne",W Indies,Holocene?,1430,Stratovolcano,?,15.500,-61.420
-61.330001831054688,15.369998931884766,610,1600-10=,"Trois Pitons, Morne",W Indies,Radiocarbon,1387,Lava domes,D6,15.370,-61.330
-61.319999694824219,15.300000190734863,611,1600-101,"Watt, Morne",W Indies,Historical,1224,Stratovolcano,D1,15.300,-61.320
-61.369998931884766,15.220000267028809,612,1600-11=,"Plat Pays, Morne",W Indies,Radiocarbon,940,Stratovolcano,D6,15.220,-61.370
-61.169998168945313,14.819999694824219,613,1600-12=,Pelee,W Indies,Historical,1397,Stratovolcano,D2,14.820,-61.170
-61.049999237060547,13.830000877380371,614,1600-14=,Qualibou,W Indies,Historical,777,Caldera,D4,13.830,-61.050
-61.179996490478516,13.329998970031738,615,1600-15=,Soufriere St. Vincent,W Indies,Historical,1220,Stratovolcano,D1,13.330,-61.180
-104.73019409179687,21.450332641601563,616,1401-023,Sanganguey,Mexico,Holocene,2340,Stratovolcano,U,21.450,-104.730
-104.50016784667969,21.125337600708008,617,1401-03=,Ceboruco,Mexico,Historical,2280,Stratovolcano,D3,21.125,-104.500
-104.83016204833984,20.620344161987305,618,1401-031,Mascota Volc Field,Mexico,Holocene,2560,Cinder cones,U,20.620,-104.830
-61.639999389648438,12.300000190734863,619,1600-16=,Kick 'em Jenny,W Indies,Historical,-185,Submarine volcano,D1,12.300,-61.640
-61.669998168945313,12.15000057220459,620,1600-17=,St. Catherine,W Indies,Holocene,840,Stratovolcano,U,12.150,-61.670
-110.81999969482422,19.299999237060547,621,1401-02=,Barcena,Mexico-Is,Historical,332,Cinder cones,D2,19.300,-110.820
-96.5260009765625,19.808998107910156,622,1401-094,"Atlixcos, Los",Mexico,Holocene,800,Shield volcano,U,19.809,-96.526
-96.75,19.670000076293945,623,1401-095,Naolinco Volc Field,Mexico,Radiocarbon,2000,Pyroclastic cones,D7,19.670,-96.750
-99.757003784179688,19.724000930786133,624,1401-062,Jocotitlan,Mexico,Radiocarbon,3900,Stratovolcano,D6,19.724,-99.757
-97.449996948242188,19.680000305175781,625,1401-093,"Humeros, Los",Mexico,Holocene?,3150,Calderas,?,19.680,-97.450
-103.62000274658203,19.513999938964844,626,1401-04=,Colima,Mexico,Historical,3850,Stratovolcanoes,D1,19.514,-103.620
-97.150001525878906,19.491998672485352,627,1401-096,Cofre de Perote,Mexico,Radiocarbon,4282,Shield volcano,D6,19.492,-97.150
-102.25,19.479999542236328,628,1401-06=,Michoacan-Guanajuato,Mexico,Historical,3860,Cinder cones,D2,19.480,-102.250
-110.94999694824219,18.780000686645508,629,1401-021,Socorro,Mexico-Is,Historical,1050,Shield volcano,D1,18.780,-110.950
-100.25,19.399999618530273,630,1401-061,Zitacuaro-Valle de Bravo,Mexico,Potassium-Argon,3500,Caldera,D7,19.400,-100.250
-97.25,19.329999923706055,631,1401-097,"Gloria, La",Mexico,Holocene,3500,Volcanic field,U,19.330,-97.250
-98.699996948242188,19.307998657226562,632,1401-081,Papayo,Mexico,Holocene,3600,Lava dome,U,19.308,-98.700
-97.470001220703125,19.270002365112305,633,1401-092,Serdan-Oriental,Mexico,Holocene,3485,Tuff cones,U,19.270,-97.470
-98.029998779296875,19.229999542236328,634,1401-091,"Malinche, La",Mexico,Radiocarbon,4503,Stratovolcano,D7,19.230,-98.030
-97.269996643066406,19.149999618530273,635,1401-098,"Cumbres,  Las",Mexico,Radiocarbon,3940,Stratovolcano,D7,19.150,-97.270
-98.641998291015625,19.179000854492188,636,1401-082,Iztaccihuatl,Mexico,Holocene,5230,Stratovolcano,U,19.179,-98.642
-99.758003234863281,19.107999801635742,637,1401-07-,"Toluca, Nevado de",Mexico,Radiocarbon,4680,Stratovolcano,D7,19.108,-99.758
-99.129997253417969,19.079999923706055,638,1401-08=,Chichinautzin,Mexico,Radiocarbon,3930,Volcanic field,D6,19.080,-99.130
-97.267997741699219,19.030002593994141,639,1401-10=,"Orizaba, Pico de",Mexico,Historical,5675,Stratovolcano,D3,19.030,-97.268
-98.622001647949219,19.023002624511719,640,1401-09=,Popocatepetl,Mexico,Historical,5426,Stratovolcanoes,D1,19.023,-98.622
-95.168998718261719,18.572000503540039,641,1401-11=,San Martin,Mexico,Historical,1650,Shield volcano,D4,18.572,-95.169
-93.227996826171875,17.360000610351562,642,1401-12=,"Chichon, El",Mexico,Historical,1150,Lava domes,D1,17.360,-93.228
-86.900001525878906,16.100000381469727,643,1403-16-,Utila Island,Honduras,Holocene,74,Pyroclastic cones,U,16.100,-86.900
-87.980003356933594,14.979999542236328,644,1403-15-,"Yojoa, Lake",Honduras,Holocene,1090,Volcanic field,U,14.980,-87.980
-92.11199951171875,15.130000114440918,645,1401-13=,Tacana,Mexico,Historical,4060,Stratovolcano,D1,15.130,-92.112
-89.550003051757813,14.829998970031738,646,1402-20-,Chiquimula Volc Field,Guatemala,Holocene,1192,Cinder cones,U,14.830,-89.550
-91.902999877929688,15.034001350402832,647,1402-02=,Tajumulco,Guatemala,Holocene,4220,Stratovolcano,U,15.034,-91.903
-91.480003356933594,14.820000648498535,648,1402-04=,Almolonga,Guatemala,Historical,3197,Stratovolcano,D3,14.820,-91.480
-89.449996948242188,14.569998741149902,649,1402-21-,Quezaltepeque,Guatemala,Holocene,1200,Volcanic field,U,14.570,-89.450
-91.552001953125,14.755998611450195,650,1402-03=,Santa Maria,Guatemala,Historical,3772,Stratovolcano,D1,14.756,-91.552
-89.629997253417969,14.549999237060547,651,1402-19-,Ipala,Guatemala,Holocene,1650,Stratovolcano,U,14.550,-89.630
-91.478996276855469,14.709999084472656,652,1402-05=,Santo Tom s,Guatemala,Pleistocene-Fumarolic,3542,Stratovolcanoes,Q,14.710,-91.479
-91.189002990722656,14.61199951171875,653,1402-07=,Toliman,Guatemala,Holocene,3158,Stratovolcano,U,14.612,-91.189
-91.185997009277344,14.583000183105469,654,1402-06=,Atitlan,Guatemala,Historical,3535,Stratovolcano,D3,14.583,-91.186
-89.680000305175781,14.420000076293945,655,1402-18-,Ixtepeque,Guatemala,Holocene,1292,Lava domes,U,14.420,-89.680
-89.900001525878906,14.429999351501465,656,1402-141,Tahual,Guatemala,Holocene,1716,Stratovolcano,U,14.430,-89.900
-89.779998779296875,14.40000057220459,657,1402-16-,Suchitan,Guatemala,Holocene,2042,Stratovolcanoes,U,14.400,-89.780
-90.875999450683594,14.50100040435791,658,1402-08=,Acatenango,Guatemala,Historical,3976,Stratovolcano,D1,14.501,-90.876
-90.742996215820313,14.465001106262207,659,1402-10=,Agua,Guatemala,Holocene,3760,Stratovolcano,U,14.465,-90.743
-90.879997253417969,14.47299861907959,660,1402-09=,Fuego,Guatemala,Historical,3763,Stratovolcano,D1,14.473,-90.880
-89.870002746582031,14.329999923706055,661,1402-15-,"Santiago, Cerro",Guatemala,Holocene,1192,Volcanic field,U,14.330,-89.870
-89.480003356933594,14.269999504089355,662,1403-001,San Diego,El Salvador,Holocene,781,Volcanic field,U,14.270,-89.480
-90.600997924804687,14.380999565124512,663,1402-11=,Pacaya,Guatemala,Historical,2552,Complex volcano,D1,14.381,-90.601
-90.0,14.30000114440918,664,1402-14-,Flores,Guatemala,Holocene,1600,Volcanic field,U,14.300,-90.000
-90.400001525878906,14.329999923706055,665,1402-111,Cuilapa-Barbarena,Guatemala,Holocene,1454,Volcanic field,U,14.330,-90.400
-89.730003356933594,14.119999885559082,666,1402-17-,Chingo,Guatemala,Holocene,1775,Stratovolcano,U,14.120,-89.730
-90.406997680664062,14.156000137329102,667,1402-12=,Tecuamburro,Guatemala,Radiocarbon,1845,Stratovolcano,D7,14.156,-90.407
-89.25,14.020001411437988,668,1403-051,"Cinotepeque, Cerro",El Salvador,Holocene,665,Volcanic field,U,14.020,-89.250
-89.650001525878906,14.05000114440918,669,1403-002,"Singuil, Cerro",El Salvador,Holocene,957,Cinder cones,U,14.050,-89.650
-90.099998474121094,14.029999732971191,670,1402-13-,Moyuta,Guatemala,Hot Springs,1662,Stratovolcano,U,14.030,-90.100
-89.120002746582031,13.899998664855957,671,1403-052,Guazapa,El Salvador,Holocene?,1438,Stratovolcano,?,13.900,-89.120
-89.550003051757813,13.869998931884766,672,1403-041,Coatepeque Caldera,El Salvador,Holocene,746,Caldera,U,13.870,-89.550
-89.786003112792969,13.890999794006348,673,1403-01=,Apaneca Range,El Salvador,Holocene,2036,Stratovolcanoes,U,13.891,-89.786
-89.629997253417969,13.853000640869141,674,1403-02=,Santa Ana,El Salvador,Historical,2381,Stratovolcano,D2,13.853,-89.630
-88.769996643066406,13.719999313354492,675,1403-071,Apastepeque Field,El Salvador,Holocene,700,Volcanic field,U,13.720,-88.770
-89.633003234863281,13.812999725341797,676,1403-03=,Izalco,El Salvador,Historical,1950,Stratovolcano,D1,13.813,-89.633
-89.293998718261719,13.734001159667969,677,1403-05=,San Salvador,El Salvador,Historical,1893,Stratovolcano,D2,13.734,-89.294
-89.053001403808594,13.672000885009766,678,1403-06=,Ilopango,El Salvador,Historical,450,Caldera,D3,13.672,-89.053
-88.836997985839844,13.594999313354492,679,1403-07=,San Vicente,El Salvador,Holocene,2182,Stratovolcano,U,13.595,-88.837
-88.319999694824219,13.475000381469727,680,1403-09=,Chinameca,El Salvador,Holocene,1228,Stratovolcano,U,13.475,-88.320
-88.501998901367188,13.494001388549805,681,1403-08=,Tecapa,El Salvador,Holocene,1593,Stratovolcano,U,13.494,-88.502
-88.105003356933594,13.428000450134277,682,1403-101,"Aramuaca, Laguna",El Salvador,Holocene,181,Maar,U,13.428,-88.105
-88.430000305175781,13.470001220703125,683,1403-082,"Tigre, El",El Salvador,Holocene,1640,Stratovolcano,U,13.470,-88.430
-88.268997192382813,13.434000968933105,684,1403-10=,San Miguel,El Salvador,Historical,2130,Stratovolcano,D1,13.434,-88.269
-86.400001525878906,13.169999122619629,685,1404-131,Esteli,Nicaragua,Holocene?,899,Fissure vents,?,13.170,-86.400
-87.629997253417969,13.330000877380371,686,1403-14-,"Zacate Grande, Isla",Honduras,Holocene,640,Stratovolcano,U,13.330,-87.630
-88.531997680664063,13.435001373291016,687,1403-072,Taburete,El Salvador,Holocene?,1172,Stratovolcano,?,13.435,-88.532
-88.471000671386719,13.418999671936035,688,1403-081,Usulutan,El Salvador,Holocene,1449,Stratovolcano,U,13.419,-88.471
-87.629997253417969,13.269999504089355,689,1403-13-,"Tigre, Isla el",Honduras,Holocene,783,Stratovolcano,U,13.270,-87.630
-87.852996826171875,13.27700138092041,690,1403-11=,Conchagua,El Salvador,Uncertain,1225,Stratovolcano,?,13.277,-87.853
-87.764999389648438,13.219999313354492,691,1403-12=,Conchaguita,El Salvador,Historical,505,Stratovolcano,D3,13.220,-87.765
-83.870002746582031,12.530000686645508,692,1404-14-,"Azul, Volcan",Nicaragua,Holocene,201,Cinder cones,U,12.530,-83.870
-87.569999694824219,12.979999542236328,693,1404-01=,Cosiguina,Nicaragua,Historical,872,Stratovolcano,D3,12.980,-87.570
-87.003997802734375,12.701999664306641,694,1404-02=,San Cristobal,Nicaragua,Historical,1745,Stratovolcano,D1,12.702,-87.004
-86.141998291015625,12.529998779296875,695,1404-132,"Ciguatepe, Cerro el",Nicaragua,Holocene?,603,Stratovolcano,?,12.530,-86.142
-86.845001220703125,12.60200023651123,696,1404-04=,Telica,Nicaragua,Historical,1061,Stratovolcanoes,D1,12.602,-86.845
-86.75,12.550000190734863,697,1404-06-,Rota,Nicaragua,Holocene,832,Stratovolcano,U,12.550,-86.750
-86.702003479003906,12.505998611450195,698,1404-07=,"Negro, Cerro",Nicaragua,Historical,728,Cinder cones,D1,12.506,-86.702
-86.688003540039063,12.494999885559082,699,1404-08=,"Pilas, Las",Nicaragua,Historical,1088,Complex volcano,D2,12.495,-86.688
-85.730003356933594,12.299999237060547,700,1404-133,"Lajas, Las",Nicaragua,Holocene?,926,Shield volcano,?,12.300,-85.730
-86.540000915527344,12.421999931335449,701,1404-09=,Momotombo,Nicaragua,Historical,1297,Stratovolcano,D2,12.422,-86.540
-86.342002868652344,12.241999626159668,702,1404-091,Apoyeque,Nicaragua,Radiocarbon,518,Pyroclastic shield,D7,12.242,-86.342
-86.319999694824219,12.119999885559082,703,1404-092,Nejapa-Miraflores,Nicaragua,Holocene,360,Fissure vents,U,12.120,-86.320
-86.161003112792969,11.983999252319336,704,1404-10=,Masaya,Nicaragua,Historical,635,Caldera,D1,11.984,-86.161
-85.980003356933594,11.919999122619629,705,1404-101,Granada,Nicaragua,Holocene,300,Fissure vents,U,11.920,-85.980
-85.968002319335938,11.826000213623047,706,1404-11=,Mombacho,Nicaragua,Holocene,1344,Stratovolcano,U,11.826,-85.968
-85.819999694824219,11.729999542236328,707,1404-111,Zapatera,Nicaragua,Holocene,629,Shield volcano,U,11.730,-85.820
-85.622001647949219,11.537999153137207,708,1404-12=,Concepcion,Nicaragua,Historical,1700,Stratovolcano,D1,11.538,-85.622
-85.514999389648438,11.446001052856445,709,1404-13-,Maderas,Nicaragua,Holocene,1394,Stratovolcano,U,11.446,-85.515
-85.472999572753906,10.979999542236328,710,1405-01=,Orosi,Costa Rica,Uncertain,1659,Stratovolcanoes,?,10.980,-85.473
-85.323997497558594,10.829999923706055,711,1405-02=,Rincon de la Vieja,Costa Rica,Historical,1916,Complex volcano,D1,10.830,-85.324
-85.152999877929688,10.748001098632813,712,1405-03=,Miravalles,Costa Rica,Historical,2028,Stratovolcano,D2,10.748,-85.153
-85.014999389648438,10.673000335693359,713,1405-031,Tenorio,Costa Rica,Holocene,1916,Stratovolcanoes,U,10.673,-85.015
-84.7030029296875,10.463000297546387,714,1405-033,Arenal,Costa Rica,Historical,1657,Stratovolcano,D1,10.463,-84.703
-84.977996826171875,10.45099925994873,715,1405-032,"Tilaran, Cerro",Costa Rica,Holocene?,634,Shield volcano,?,10.451,-84.978
-84.365997314453125,10.300000190734863,716,1405-034,Platanar,Costa Rica,Holocene,2267,Stratovolcanoes,U,10.300,-84.366
-84.233001708984375,10.199999809265137,717,1405-04=,Poas,Costa Rica,Historical,2708,Stratovolcano,D1,10.200,-84.233
-84.099998474121094,10.135000228881836,718,1405-05=,Barva,Costa Rica,Tephrochronology,2906,Complex volcano,D7,10.135,-84.100
-83.769996643066406,10.029999732971191,719,1405-07=,Turrialba,Costa Rica,Historical,3340,Stratovolcano,D3,10.030,-83.770
